code;name;street;postal_code;city;manager;chain_name;email
100291;Post CH AG;"PostNetz; Wankdorfallee";3030;Bern;Emir Mustafa;Schweizerische Post;Emir.Mustafa@salt.ch
102285;PostShop Lausanne 2 St-François;Place Saint-François 15;1000;Lausanne 2 St-François;Ludovic Girardin;Schweizerische Post;Ludovic.Girardin@salt.ch
105366;PostShop Lausanne 1 Dépôt;Avenue de la Gare 43 B;1000;Lausanne 1 Dépôt;Ludovic Girardin;Schweizerische Post;Ludovic.Girardin@salt.ch
105367;PostShop Genève 11 Rue du Stand;Place de la Poste;1200;Genève 11 Rue du Stand;Ludovic Girardin;Schweizerische Post;Ludovic.Girardin@salt.ch
105443;PostShop Genève 1 Mont-Blanc;Rue du Mont-Blanc 18;1200;Genève 1 Mont-Blanc;Ludovic Girardin;Schweizerische Post;Ludovic.Girardin@salt.ch
105444;PostShop Genève 13 Les Charmilles;Rue des Charmilles 23;1200;Genève 13 Les Charmilles;Ludovic Girardin;Schweizerische Post;Ludovic.Girardin@salt.ch
105368;PostShop Bulle;Rue Nicolas-Glasson 8;1630;Bulle 1;Ludovic Girardin;Schweizerische Post;Ludovic.Girardin@salt.ch
109696;PostShop Bern 22 Breitenrain;Scheibenstrasse 20;3000;Bern 22 Breitenrain;Emir Mustafa;Schweizerische Post;Emir.Mustafa@salt.ch
105370;PostShop Bern 18 Bümpliz;Frankenstrasse 1;3018;Bern 18 Bümpliz;Emir Mustafa;Schweizerische Post;Emir.Mustafa@salt.ch
105371;PostShop Lyss;Bahnhofstrasse 8;3250;Lyss;Emir Mustafa;Schweizerische Post;Emir.Mustafa@salt.ch
105372;PostShop Basel 2 Annahme;Postpassage 9;4002;Basel 2 Annahme;Emir Mustafa;Schweizerische Post;Emir.Mustafa@salt.ch
105445;PostShop Basel 1 Rüdengasse;Rüdengasse 1;4001;Basel 1 Rüdengasse;Emir Mustafa;Schweizerische Post;Emir.Mustafa@salt.ch
109697;PostShop Binningen;Hauptstrasse 34;4102;Binningen 1;Emir Mustafa;Schweizerische Post;Emir.Mustafa@salt.ch
108104;PostShop Pratteln;Bahnhofstrasse 34;4133;Pratteln 1;Emir Mustafa;Schweizerische Post;Emir.Mustafa@salt.ch
105373;PostShop Reinach BL;Austrasse 2;4153;Reinach BL 1;Emir Mustafa;Schweizerische Post;Emir.Mustafa@salt.ch
105375;PostShop Brugg AG;Bahnhofstrasse 11;5200;Brugg AG 1;Besnik Jakupi;Schweizerische Post;Besnik.Jakupi@salt.ch
105376;PostShop Baden;Bahnhofstrasse;5400;Baden 1;Besnik Jakupi;Schweizerische Post;Besnik.Jakupi@salt.ch
105446;PostShop Luzern;Bahnhofplatz 4;6000;Luzern 1 Annahme;Besnik Jakupi;Schweizerische Post;Besnik.Jakupi@salt.ch
102684;Post CH AG Luzern 2 Universität;Frohburgstrasse;6005;Luzern 2  Annahme;Besnik Jakupi;Schweizerische Post;Besnik.Jakupi@salt.ch
108105;Posta CH SA Bellinzona 1;Viale Stazione;6500;Bellinzona 1;Gianni Cartolano;Schweizerische Post;Gianni.Cartolano@salt.ch
105448;PostShop Locarno;Piazza Grande 3;6600;Locarno 1;Gianni Cartolano;Schweizerische Post;Gianni.Cartolano@salt.ch
105449;PostShop Zürich 1 Sihlpost;Kasernenstrasse 97;8021;Zürich 1 Sihlpost;Gianni Cartolano;Schweizerische Post;Gianni.Cartolano@salt.ch
105378;PostShop Zürich 36 Wiedikon;Seebahnstrasse 89;8036;Zürich 36 Wiedikon;Gianni Cartolano;Schweizerische Post;Gianni.Cartolano@salt.ch
105379;PostShop Winterthur;Bahnhofplatz 8;8400;Winterthur 1 Annahme;Gianni Cartolano;Schweizerische Post;Gianni.Cartolano@salt.ch
101268;PostShop Dübendorf;Wilstrasse 15;8600;Dübendorf 1;Gianni Cartolano;Schweizerische Post;Gianni.Cartolano@salt.ch
105450;PostShop Aarau;Bahnhofstrasse;5000;Aarau;Besnik Jakupi;Schweizerische Post;Besnik.Jakupi@salt.ch
108106;PostShop Aigle;Rue de la Gare 27;1860;Aigle;Ludovic Girardin;Schweizerische Post;Ludovic.Girardin@salt.ch
105380;PostShop Burgdorf;Bahnhofstrasse 35;3400;Burgdorf 1;Emir Mustafa;Schweizerische Post;Emir.Mustafa@salt.ch
105381;PostShop Biel 3 Neumarkt;General-Dufour-Strasse 26;2500;Biel/Bienne 3 Neumarkt/Marché-Neuf;Emir Mustafa;Schweizerische Post;Emir.Mustafa@salt.ch
105382;PostShop Delémont;Place de la Poste 4;2800;Delémont 1;Emir Mustafa;Schweizerische Post;Emir.Mustafa@salt.ch
105383;PostShop Frauenfeld;Rheinstrasse 1;8500;Frauenfeld 1;Lucas Amigo;Schweizerische Post;Lucas.Amigo@salt.ch
105384;PostShop Fribourg;Avenue de Tivoli;1700;Fribourg 1 Dépôt;Ludovic Girardin;Schweizerische Post;Ludovic.Girardin@salt.ch
108107;PostShop Genève 3 Rive;Rue du Vieux-Collège 3;1200;Genève 3 Rive;Ludovic Girardin;Schweizerische Post;Ludovic.Girardin@salt.ch
105385;PostShop Grenchen;Kirchstrasse 10;2540;Grenchen 1;Emir Mustafa;Schweizerische Post;Emir.Mustafa@salt.ch
108108;PostShop Langenthal;Jurastrasse 41;4900;Langenthal 1;Emir Mustafa;Schweizerische Post;Emir.Mustafa@salt.ch
105451;PostShop Lugano;Via della Posta 7;6900;Lugano 1;Gianni Cartolano;Schweizerische Post;Gianni.Cartolano@salt.ch
108109;PostShop Murten;Bahnhofstrasse 10;3280;Murten;Emir Mustafa;Schweizerische Post;Emir.Mustafa@salt.ch
105386;PostShop Neuchâtel 1 Dépôt;Place Numa-Droz;2001;Neuchâtel 1 Dépôt;Ludovic Girardin;Schweizerische Post;Ludovic.Girardin@salt.ch
105387;PostShop Olten 1 Annahme;Bahnhofquai 12;4600;Olten 1;Besnik Jakupi;Schweizerische Post;Besnik.Jakupi@salt.ch
105388;PostShop Rapperswil SG;Untere Bahnhofstrasse;8640;Rapperswil SG;Lucas Amigo;Schweizerische Post;Lucas.Amigo@salt.ch
105389;PostShop Schaffhausen;Bahnhofstrasse 34;8200;Schaffhausen 1;Lucas Amigo;Schweizerische Post;Lucas.Amigo@salt.ch
105452;PostShop St. Gallen 1 Annahme;Bahnhofplatz 5;9000;St. Gallen 1 Annahme;Lucas Amigo;Schweizerische Post;Lucas.Amigo@salt.ch
105390;PostShop Thun;Panoramastrasse 1 A;3601;Thun 1 Bahnhofplatz;Emir Mustafa;Schweizerische Post;Emir.Mustafa@salt.ch
105391;PostShop Uster;Gerichtsstrasse 4;8610;Uster 1;Gianni Cartolano;Schweizerische Post;Gianni.Cartolano@salt.ch
105392;PostShop Wädenswil;Reblaubenweg;8820;Wädenswil;Lucas Amigo;Schweizerische Post;Lucas.Amigo@salt.ch
105393;PostShop Will SG;Hubstrasse 18;9500;Wil SG 1;Lucas Amigo;Schweizerische Post;Lucas.Amigo@salt.ch
105394;PostShop Yverdon-les-Bains;Avenue de la Gare 6;1400;Yverdon-les-Bains 1;Ludovic Girardin;Schweizerische Post;Ludovic.Girardin@salt.ch
108110;PostShop Rüti ZH;Ferrachstrasse 10;8630;Rüti ZH;Gianni Cartolano;Schweizerische Post;Gianni.Cartolano@salt.ch
105396;PostShop Buchs SG;Bahnhofplatz 1;9470;Buchs SG 1;Lucas Amigo;Schweizerische Post;Lucas.Amigo@salt.ch
108111;PostShop Gossau SG;Poststrasse 6;9200;Gossau SG 1;Lucas Amigo;Schweizerische Post;Lucas.Amigo@salt.ch
108112;PostShop St. Gallen 4 Brühltor;Brühlgasse 1;9004;St. Gallen 4 Brühltor;Lucas Amigo;Schweizerische Post;Lucas.Amigo@salt.ch
108113;PostShop Laufen;Bahnhofstrasse 13;4242;Laufen;Emir Mustafa;Schweizerische Post;Emir.Mustafa@salt.ch
105397;PostShop Liestal;Poststrasse 3;4410;Liestal;Emir Mustafa;Schweizerische Post;Emir.Mustafa@salt.ch
108114;PostShop Spiez;Bahnhofstrasse 19;3700;Spiez;Emir Mustafa;Schweizerische Post;Emir.Mustafa@salt.ch
108115;PostShop Montreux;Avenue des Alpes;1820;Montreux 1;Ludovic Girardin;Schweizerische Post;Ludovic.Girardin@salt.ch
105398;PostShop Chiasso;Piazza Indipendenza 3;6830;Chiasso 1;Gianni Cartolano;Schweizerische Post;Gianni.Cartolano@salt.ch
108116;PostShop Mendrisio Stazione;Via Stefano Franscini 7;6850;Mendrisio Stazione;Gianni Cartolano;Schweizerische Post;Gianni.Cartolano@salt.ch
108117;PostShop Zermatt;Bahnhofstrasse 46;3920;Zermatt;Emir Mustafa;Schweizerische Post;Emir.Mustafa@salt.ch
108118;PostShop Fleurier;Avenue de la Gare;2114;Fleurier;Ludovic Girardin;Schweizerische Post;Ludovic.Girardin@salt.ch
105399;PostShop La Chaux-de-Fonds 1 Dépôt;Avenue Léopold-Robert;2301;La Chaux-de-Fonds 1 Dépôt;Ludovic Girardin;Schweizerische Post;Ludovic.Girardin@salt.ch
105400;PostShop Brig;Bahnhofstrasse 1  Postfach;3900;Brig;Emir Mustafa;Schweizerische Post;Emir.Mustafa@salt.ch
108119;PostShop Neuchâtel 2 Gare;Espace de l'Europe;2000;Neuchâtel 2 Gare;Ludovic Girardin;Schweizerische Post;Ludovic.Girardin@salt.ch
108120;PostShop Visp;Kantonsstrasse 3;3930;Visp;Emir Mustafa;Schweizerische Post;Emir.Mustafa@salt.ch
108121;PostShop Le Locle;Rue Bournot;2400;Le Locle;Ludovic Girardin;Schweizerische Post;Ludovic.Girardin@salt.ch
108122;PostShop La Chaux-de-Fonds 2 Marché;Rue du Marché;2302;La Chaux-de-Fonds 2 Marché;Ludovic Girardin;Schweizerische Post;Ludovic.Girardin@salt.ch
105401;PostShop Interlaken;Marktgasse 1;3800;Interlaken;Emir Mustafa;Schweizerische Post;Emir.Mustafa@salt.ch
105453;PostShop Biel 1 Annahme;Bahnhofplatz 2;2500;Biel/Bienne 1 Annahme/Dépôt;Emir Mustafa;Schweizerische Post;Emir.Mustafa@salt.ch
108123;PostShop Payerne;Rue des Granges 20;1530;Payerne;Ludovic Girardin;Schweizerische Post;Ludovic.Girardin@salt.ch
108124;PostShop Zollikofen;Schulhausstrasse 27;3052;Zollikofen;Emir Mustafa;Schweizerische Post;Emir.Mustafa@salt.ch
105454;PostShop Genève 28 Balexert;Avenue Louis-Casaï 27;1200;Genève 28 Balexert;Ludovic Girardin;Schweizerische Post;Ludovic.Girardin@salt.ch
108125;PostShop Pully;Place de la Gare 1;1009;Pully;Ludovic Girardin;Schweizerische Post;Ludovic.Girardin@salt.ch
105402;PostShop Renens VD;Avenue de la Poste 5;1020;Renens VD 1;Ludovic Girardin;Schweizerische Post;Ludovic.Girardin@salt.ch
108127;PostShop Meyrin;Avenue de Feuillasse 24;1217;Meyrin 1;Ludovic Girardin;Schweizerische Post;Ludovic.Girardin@salt.ch
108128;PostShop Chêne-Bourg;Rue du Gothard 22;1225;Chêne-Bourg;Ludovic Girardin;Schweizerische Post;Ludovic.Girardin@salt.ch
105403;PostShop Vevey;Avenue Général-Guisan;1800;Vevey 1;Ludovic Girardin;Schweizerische Post;Ludovic.Girardin@salt.ch
108129;Poste CH SA La Tour-de-Peilz;Avenue de la Gare;1814;La Tour-de-Peilz;Ludovic Girardin;Schweizerische Post;Ludovic.Girardin@salt.ch
105404;PostShop Martigny;Avenue de la Gare 34;1920;Martigny 1;Ludovic Girardin;Schweizerische Post;Ludovic.Girardin@salt.ch
105405;PostShop Sion;Place de la Gare 11;1950;Sion 1;Ludovic Girardin;Schweizerische Post;Ludovic.Girardin@salt.ch
105406;PostShop Sierre;Place de la Gare 5;3960;Sierre;Ludovic Girardin;Schweizerische Post;Ludovic.Girardin@salt.ch
105407;PostShop Zofingen;Untere Grabenstrasse 32;4800;Zofingen;Besnik Jakupi;Schweizerische Post;Besnik.Jakupi@salt.ch
108131;PostShop Lenzburg;Murackerstrasse 6;5600;Lenzburg 1;Besnik Jakupi;Schweizerische Post;Besnik.Jakupi@salt.ch
108132;PostShop Wohlen AG;Aargauerstrasse 8;5610;Wohlen AG 1;Besnik Jakupi;Schweizerische Post;Besnik.Jakupi@salt.ch
108133;PostShop Sarnen;Lindenhof;6060;Sarnen 1;Besnik Jakupi;Schweizerische Post;Besnik.Jakupi@salt.ch
108134;PostShop Stans;Bahnhofplatz;6370;Stans;Besnik Jakupi;Schweizerische Post;Besnik.Jakupi@salt.ch
108135;PostShop Schwyz;Oberer Steisteg 14;6430;Schwyz;Besnik Jakupi;Schweizerische Post;Besnik.Jakupi@salt.ch
108136;PostShop Adliswil;Poststrasse;8134;Adliswil 1;Lucas Amigo;Schweizerische Post;Lucas.Amigo@salt.ch
108137;PostShop Altdorf;Bahnhofstrasse;6460;Altdorf UR 1;Besnik Jakupi;Schweizerische Post;Besnik.Jakupi@salt.ch
108138;PostShop Amriswil;Bahnhofstrasse 13 B;8580;Amriswil;Lucas Amigo;Schweizerische Post;Lucas.Amigo@salt.ch
108139;PostShop Arbon;Friedenstrasse 7;9320;Arbon;Lucas Amigo;Schweizerische Post;Lucas.Amigo@salt.ch
105409;PostShop Davos;Bahnhofstrasse 3;7270;Davos Platz 1;Lucas Amigo;Schweizerische Post;Lucas.Amigo@salt.ch
108140;PostShop Effretikon;Bahnhofstrasse;8307;Effretikon;Lucas Amigo;Schweizerische Post;Lucas.Amigo@salt.ch
108141;PostShop Glarus;Schweizerhofstrasse 10;8750;Glarus;Lucas Amigo;Schweizerische Post;Lucas.Amigo@salt.ch
105410;PostShop Kreuzlingen;Nationalstrasse 3;8280;Kreuzlingen 1;Lucas Amigo;Schweizerische Post;Lucas.Amigo@salt.ch
108142;PostShop Pfäffikon SZ;Poststrasse;8808;Pfäffikon SZ;Lucas Amigo;Schweizerische Post;Lucas.Amigo@salt.ch
108143;PostShop Romanshorn;Bahnhofstrasse 2;8590;Romanshorn;Lucas Amigo;Schweizerische Post;Lucas.Amigo@salt.ch
105411;PostShop Schlieren;Freiestrasse;8952;Schlieren;Besnik Jakupi;Schweizerische Post;Besnik.Jakupi@salt.ch
108144;PostShop Spreitenbach;Shopping Center;8957;Spreitenbach;Besnik Jakupi;Schweizerische Post;Besnik.Jakupi@salt.ch
108145;PostShop Weinfelden;Bahnhofstrasse 10;8570;Weinfelden;Lucas Amigo;Schweizerische Post;Lucas.Amigo@salt.ch
108146;PostShop Marin-Centre;Rue de la Fleur-de-Lys;2074;Marin-Centre;Ludovic Girardin;Schweizerische Post;Ludovic.Girardin@salt.ch
108147;PostShop Avry-Centre;Route de Matran;1754;Avry-Centre FR;Ludovic Girardin;Schweizerische Post;Ludovic.Girardin@salt.ch
101348;PostShop Emmenbrücke;Stauffacherstrasse 1;6020;Emmenbrücke 3 Emmen Center;Besnik Jakupi;Schweizerische Post;Besnik.Jakupi@salt.ch
108148;PostShop Herzogenbuchsee;Lagerstrasse 14;3360;Herzogenbuchsee;Emir Mustafa;Schweizerische Post;Emir.Mustafa@salt.ch
108149;PostShop Lausanne 16 Malley;Chemin du Viaduc 1;1000;Lausanne 16 Malley;Ludovic Girardin;Schweizerische Post;Ludovic.Girardin@salt.ch
101144;PostShop Crissier;Chemin de Saugy 1;1023;Crissier 2 Sorge;Ludovic Girardin;Schweizerische Post;Ludovic.Girardin@salt.ch
102191;PostShop Kriens;Luzernerstrasse 26;6010;Kriens 1;Besnik Jakupi;Schweizerische Post;Besnik.Jakupi@salt.ch
102143;PostShop Kloten;Bahnhofstrasse 6;8302;Kloten;Gianni Cartolano;Schweizerische Post;Gianni.Cartolano@salt.ch
108150;PostShop Uznach;Zürcherstrasse;8730;Uznach;Lucas Amigo;Schweizerische Post;Lucas.Amigo@salt.ch
100445;PostShop Basel 5 St. Clara;Claragraben 81;4005;Basel 5 St. Clara;Emir Mustafa;Schweizerische Post;Emir.Mustafa@salt.ch
108151;PostShop Sursee;Centralstrasse 8 B;6210;Sursee;Besnik Jakupi;Schweizerische Post;Besnik.Jakupi@salt.ch
108152;PostShop Balsthal;Falkensteinerstrasse;4710;Balsthal;Besnik Jakupi;Schweizerische Post;Besnik.Jakupi@salt.ch
105149;PostShop Zürich 32 Neumünster;Forchstrasse;8008;Zürich 32 Neumünster;Gianni Cartolano;Schweizerische Post;Gianni.Cartolano@salt.ch
105151;PostShop Zürich 40 Sihlfeld;Albisriederstrasse;8003;Zürich 40 Sihlfeld;Gianni Cartolano;Schweizerische Post;Gianni.Cartolano@salt.ch
100750;PostShop Birsfelden;Hauptstrasse;4127;Birsfelden;Emir Mustafa;Schweizerische Post;Emir.Mustafa@salt.ch
100866;Post CH AG Bülach;Alte Winterthurerstrasse;8180;Bülach;Gianni Cartolano;Schweizerische Post;Gianni.Cartolano@salt.ch
102430;PostShop Lausanne La Riponne;Place de la Riponne 4;1000;Lausanne 17 Riponne;Ludovic Girardin;Schweizerische Post;Ludovic.Girardin@salt.ch
105412;PostShop Genève Plainpalais;Rue Pictet-de-Bock;1205;Genève;Ludovic Girardin;Schweizerische Post;Ludovic.Girardin@salt.ch
102288;JMR Télécommunication;Boulevard de Grancy;1006;Lausanne;Ludovic Girardin;SPP - Salt Point Partner;Ludovic.Girardin@salt.ch
102844;Missiliez SA;Avenue de la Plantaud ;1870;Monthey;Ludovic Girardin;SPP Premium;Ludovic.Girardin@salt.ch
101989;R. Schmuki AG;Industriestrasse ;9100;Herisau;Lucas Amigo;SPP - Salt Point Partner;Lucas.Amigo@salt.ch
104370;Perfekta Wil GmbH;Obere Bahnhofstrasse 49;9500;Wil SG;Lucas Amigo;SPP Premium;Lucas.Amigo@salt.ch
100167;Bianchetti Direkt-Handel;Bürenstrasse;3296;Arch;Emir Mustafa;SPP - Salt Point Partner;Emir.Mustafa@salt.ch
102718;Mobilezone SA Manno Via Cantonale;Via Cantonale;6928;Manno;Gianni Cartolano;MobileZone;Gianni.Cartolano@salt.ch
104411;AMS All Mobile Service AG;Technikumstrasse;8400;Winterthur;Lucas Amigo;SPP Premium;Lucas.Amigo@salt.ch
103699;Forclaz SA;Route de la Gemmi ;3960;Sierre;Ludovic Girardin;SPP - Salt Point Partner;Ludovic.Girardin@salt.ch
102486;Viva TV Sport GmbH Lenzburg;Bahnhofstrasse;5600;Lenzburg;Besnik Jakupi;SPP Premium;Besnik.Jakupi@salt.ch
104481;Viva TV Sport GmbH Wohlen;Zentralstrasse;5610;Wohlen;Besnik Jakupi;SPP Premium;Besnik.Jakupi@salt.ch
102289;Digital Planet;Galerie St. François A;1003;Lausanne;Ludovic Girardin;SPP Premium;Ludovic.Girardin@salt.ch
100648;Mobilezone SA Biasca;Via Lucomagno;6710;Biasca;Gianni Cartolano;MobileZone;Gianni.Cartolano@salt.ch
100467;Mobilezone SA Bellinzona Viale Stazione;Viale Stazione;6500;Bellinzona;Gianni Cartolano;MobileZone;Gianni.Cartolano@salt.ch
103379;Soundgarden Gartmann GmbH;Hauptstrasse;5734;Reinach;Besnik Jakupi;SPP Premium;Besnik.Jakupi@salt.ch
101445;Perfekta Wil GmbH;Obere Bahnhofstrasse;9500;Wil SG;Lucas Amigo;SPP Premium;Lucas.Amigo@salt.ch
101491;Ruchti TV GmbH;Tellenfeldstrasse;3714;Frutigen;Emir Mustafa;SPP - Salt Point Partner;Emir.Mustafa@salt.ch
101203;Auratel AG;Steinhaldenstrasse;8954;Geroldswil;Lucas Amigo;SPP - Salt Point Partner;Lucas.Amigo@salt.ch
100128;Saxer Telekom AG;Engelgasse;9450;Altstätten;Lucas Amigo;SPP Premium;Lucas.Amigo@salt.ch
102497;CORPORATEL-Fernando DIAS;Rue Gustave-Revilliod;1227;Les Acacias;Ludovic Girardin;SPP Premium;Ludovic.Girardin@salt.ch
102222;berberat-mobiles Sàrl;Rue Léopold-Robert 102;2300;La Chaux-de-Fonds;Emir Mustafa;SPP - Salt Point Partner;Emir.Mustafa@salt.ch
101529;Mobilezone SA Genève Les Cygnes EKZ;Centre Commercial Les Cygnes Genève /  Rue des Alpes;1201;Genève;Ludovic Girardin;MobileZone;Ludovic.Girardin@salt.ch
101841;Mobilezone AG Glarus;Schweizerhofstrasse;8750;Glarus;Lucas Amigo;MobileZone;Lucas.Amigo@salt.ch
102845;Mobile Center, Amorim Brito;Av. de France;1870;Monthey;Ludovic Girardin;SPP Premium;Ludovic.Girardin@salt.ch
104482;Ponana GmbH Wohlen;Alte Bahnhofstrasse;5610;Wohlen;Besnik Jakupi;SPP Premium;Besnik.Jakupi@salt.ch
103218;3JCOM SA;Lancy Centre  Route de Chancy;1213;Petit-Lancy;Ludovic Girardin;SPP Premium;Ludovic.Girardin@salt.ch
101533;3JCOM SA;rue du Tir;1204;Genève;Ludovic Girardin;SPP Premium;Ludovic.Girardin@salt.ch
102018;Handy Home Shop GmbH;Seestrasse;8810;Horgen;Lucas Amigo;SPP Premium;Lucas.Amigo@salt.ch
100030;Letec Aarau - Data Quest AG;Bahnhofplatz;5000;Aarau;Besnik Jakupi;SPP - Salt Point Partner;Besnik.Jakupi@salt.ch
103858;Letec St. Gallen - Data Quest AG;Neugasse;9000;St.Gallen;Lucas Amigo;SPP - Salt Point Partner;Lucas.Amigo@salt.ch
104412;Letec Winterthur - Data Quest AG;Untertor;8400;Winterthur;Lucas Amigo;SPP - Salt Point Partner;Lucas.Amigo@salt.ch
104723;Data Quest AG;Bahnhofplatz;8001;Zürich;Lucas Amigo;SPP - Salt Point Partner;Lucas.Amigo@salt.ch
107718;Data Quest AG;Riedstrasse;8953;Dietikon;Lucas Amigo;SPP - Salt Point Partner;Lucas.Amigo@salt.ch
107719;Data Quest AG;Weinbergstrasse;8006;Zürich;Lucas Amigo;SPP - Salt Point Partner;Lucas.Amigo@salt.ch
107720;Data Quest AG;Baarerstrasse;6300;Zug;Besnik Jakupi;SPP - Salt Point Partner;Besnik.Jakupi@salt.ch
107721;Data Quest AG;Pilatusstrasse;6003;Luzern;Besnik Jakupi;SPP - Salt Point Partner;Besnik.Jakupi@salt.ch
107722;Data Quest AG;Theaterplatz;3000;Bern;Emir Mustafa;SPP - Salt Point Partner;Emir.Mustafa@salt.ch
103012;Heiniger Unternehmensberatung AG;Leenrütimattweg;4704;Niederbipp;Emir Mustafa;SPP - Salt Point Partner;Emir.Mustafa@salt.ch
108155;Heiniger Unternehmensberatung AG;Bahnhofstrasse;9470;Buchs SG;Lucas Amigo;SPP - Salt Point Partner;Lucas.Amigo@salt.ch
103595;Data Quest AG;Vorstadt;8200;Schaffhausen;Lucas Amigo;SPP - Salt Point Partner;Lucas.Amigo@salt.ch
107723;Data Quest AG;Bälliz ;3600;Thun;Emir Mustafa;SPP - Salt Point Partner;Emir.Mustafa@salt.ch
107724;Data Quest AG;Steinbockstrasse;7000;Chur;Lucas Amigo;SPP - Salt Point Partner;Lucas.Amigo@salt.ch
100302;Ingenodata AG;Güterstrasse;4053;Basel;Emir Mustafa;SPP - Salt Point Partner;Emir.Mustafa@salt.ch
102526;PS Consulting Sàrl;Rte Cantonale;1897;Les Evouettes;Ludovic Girardin;SPP - Salt Point Partner;Ludovic.Girardin@salt.ch
103283;Technoware Sàrl;Place de la Gare;2900;Porrentruy;Ludovic Girardin;SPP Premium;Ludovic.Girardin@salt.ch
103361;Mobilezone AG Zentrale;Suurstoffi;6343;Rotkreuz;Besnik Jakupi;MobileZone;Besnik.Jakupi@salt.ch
100513;Mobilezone AG Bern Waaghaus;Waaghaus-Passage;3011;Bern;Emir Mustafa;MobileZone;Emir.Mustafa@salt.ch
103346;Mobilezone AG Rapperswil EKZ;EKZ Sonnenhof / Zürcherstrasse;8640;Rapperswil;Lucas Amigo;MobileZone;Lucas.Amigo@salt.ch
101538;Mobilezone SA Genève Carouge;Rue de Carouge;1205;Genève;Ludovic Girardin;MobileZone;Ludovic.Girardin@salt.ch
101177;Mobilezone SA Delémont;Avenue de la Gare;2800;Delémont;Emir Mustafa;MobileZone;Emir.Mustafa@salt.ch
103709;Mobilezone SA Signy Centre EKZ;Rue de Fléchères;1274;Signy-Centre;Ludovic Girardin;MobileZone;Ludovic.Girardin@salt.ch
103147;Mobilezone AG Oftringen Perry EKZ;Bernstrasse;4665;Oftringen;Besnik Jakupi;MobileZone;Besnik.Jakupi@salt.ch
103364;Mobilezone AG Regensdorf Zentrum EKZ;Zentrum Regensdorf;8105;Regensdorf;Lucas Amigo;MobileZone;Lucas.Amigo@salt.ch
102644;Mobilezone AG Luzern Kapellgasse;Kapellgasse;6004;Luzern;Besnik Jakupi;MobileZone;Besnik.Jakupi@salt.ch
103700;Mobilezone SA Sierre Noes EKZ;Centre Manor Sierre / Route de Sion;3960;Sierre;Ludovic Girardin;MobileZone;Ludovic.Girardin@salt.ch
104314;Mobilezone AG Weinfelden EKZ;Zentrum-Passage / Rathausstrasse;8570;Weinfelden;Lucas Amigo;MobileZone;Lucas.Amigo@salt.ch
102799;Mobilezone SA Meyrin EKZ;Avenue de Feuillasse;1217;Meyrin;Ludovic Girardin;MobileZone;Ludovic.Girardin@salt.ch
102224;Mobilezone SA La Chaux-de-Fonds Eplatures EKZ;Centre Commercial des Eplatures / Bd. des Eplatures;2304;La Chaux-de-Fonds;Ludovic Girardin;MobileZone;Ludovic.Girardin@salt.ch
100162;Mobilezone AG Arbon EKZ;EKZ Novaseta / St.Gallerstrasse;9320;Arbon;Lucas Amigo;MobileZone;Lucas.Amigo@salt.ch
101314;Mobilezone AG Egerkingen Gäupark EKZ;Hausimollstrasse;4622;Egerkingen;Emir Mustafa;MobileZone;Emir.Mustafa@salt.ch
100250;Mobilezone SA Balerna EKZ;Centro Breggia Balerna / Via S. Gottardo;6828;Balerna;Gianni Cartolano;MobileZone;Gianni.Cartolano@salt.ch
101884;Mobilezone SA Grancia EKZ;Centro Grancia / Parco Commerciale;6916;Grancia;Gianni Cartolano;MobileZone;Gianni.Cartolano@salt.ch
100855;Mobilezone AG Buchs EKZ;EKZ City Shopping / Bahnhofstrasse;9470;Buchs SG;Lucas Amigo;MobileZone;Lucas.Amigo@salt.ch
101036;Mobilezone AG Chur EKZ;EKZ City Shop / Quaderstrasse;7000;Chur;Lucas Amigo;MobileZone;Lucas.Amigo@salt.ch
104006;Mobilezone AG Thun Bälliz;Bälliz;3600;Thun;Emir Mustafa;MobileZone;Emir.Mustafa@salt.ch
103781;Mobilezone AG Spreitenbach Tivoli EKZ;Center Mall / Laden;8957;Spreitenbach;Besnik Jakupi;MobileZone;Besnik.Jakupi@salt.ch
100796;Mobilezone AG Brig;Bahnhofstrasse;3900;Brig;Emir Mustafa;MobileZone;Emir.Mustafa@salt.ch
102265;Mobilezone AG Langenthal;Marktgasse;4900;Langenthal;Emir Mustafa;MobileZone;Emir.Mustafa@salt.ch
102004;Mobilezone AG Hinwil EKZ Coop Megastore;Wässeristrasse;8340;Hinwil;Gianni Cartolano;MobileZone;Gianni.Cartolano@salt.ch
102743;Mobilezone SA Martigny EKZ;Centre Commercial le Manoir Martigny / Rue du Manoir;1920;Martigny;Ludovic Girardin;MobileZone;Ludovic.Girardin@salt.ch
102164;Mobilezone AG Kreuzlingen;Hauptstrasse;8280;Kreuzlingen;Lucas Amigo;MobileZone;Lucas.Amigo@salt.ch
103748;Mobilezone AG Solothurn;Hauptgasse;4500;Solothurn;Emir Mustafa;MobileZone;Emir.Mustafa@salt.ch
103848;Mobilezone AG St. Margrethen EKZ;EKZ Rheinpark / Neudorfstrasse;9430;St. Margrethen;Lucas Amigo;MobileZone;Lucas.Amigo@salt.ch
101129;Mobilezone SA Crissier EKZ;Centre MMM Crissier / Chemin de Closalet;1023;Crissier;Ludovic Girardin;MobileZone;Ludovic.Girardin@salt.ch
100032;Mobilezone AG Aarau;Bahnhofstrasse;5000;Aarau;Besnik Jakupi;MobileZone;Besnik.Jakupi@salt.ch
103490;Mobilezone AG Rorschach;Hauptstrasse;9401;Rorschach;Lucas Amigo;MobileZone;Lucas.Amigo@salt.ch
104363;Mobilezone AG Wil;Obere Bahnhofstr.;9500;Wil;Lucas Amigo;MobileZone;Lucas.Amigo@salt.ch
103648;Mobilezone AG Schönbühl Shoppyland EKZ;EKZ Shoppyland / Industriestrasse;3322;Schönbühl;Emir Mustafa;MobileZone;Emir.Mustafa@salt.ch
102557;Mobilezone SA Locarno;Largo Zorzi;6600;Locarno;Gianni Cartolano;MobileZone;Gianni.Cartolano@salt.ch
100661;Mobilezone AG Biel Centre Boujean EKZ;Zürichstrasse;2504;Biel;Emir Mustafa;MobileZone;Emir.Mustafa@salt.ch
100240;Mobilezone AG Baden;Badstrasse;5400;Baden;Besnik Jakupi;MobileZone;Besnik.Jakupi@salt.ch
104226;Mobilezone AG Volketswil EKZ;Industriestrasse;8604;Volketswil;Gianni Cartolano;MobileZone;Gianni.Cartolano@salt.ch
100306;Mobilezone AG Basel St. Jakob EKZ;St. Jakobsstrasse;4052;Basel;Emir Mustafa;MobileZone;Emir.Mustafa@salt.ch
101804;Mobilezone SA Genève Planète Charmilles EKZ;Centre Commercial Planète Charmiles / Promenade de l'Europe;1203;Genève;Ludovic Girardin;MobileZone;Ludovic.Girardin@salt.ch
104602;Mobilezone AG Zug Metalli EKZ;EKZ Metalli / Baarerstrasse;6300;Zug;Besnik Jakupi;MobileZone;Besnik.Jakupi@salt.ch
102783;Mobilezone AG Mels EKZ;Pizol-Center / Grossfeldstrasse;8887;Mels;Lucas Amigo;MobileZone;Lucas.Amigo@salt.ch
102689;Mobilezone AG Lyss;Hirschenplatz;3250;Lyss;Emir Mustafa;MobileZone;Emir.Mustafa@salt.ch
101295;Mobilezone SA Ecublens EKZ;Chemin du Croset;1024;Ecublens;Ludovic Girardin;MobileZone;Ludovic.Girardin@salt.ch
104519;Mobilezone SA Yverdon;Rue du Lac;1400;Yverdon;Ludovic Girardin;MobileZone;Ludovic.Girardin@salt.ch
101067;Mobilezone SA Collombey EKZ;Centre Commercial Parc du Rhône Collombey / Pré Jacquet;1868;Collombey;Ludovic Girardin;MobileZone;Ludovic.Girardin@salt.ch
102645;Mobilezone AG Luzern Pilatusstrasse;Pilatusstrasse;6003;Luzern;Besnik Jakupi;MobileZone;Besnik.Jakupi@salt.ch
101858;Mobilezone AG Glattzentrum;EKZ Glatt / Untere Verkaufsebene;8301;Glattzentrum;Gianni Cartolano;MobileZone;Gianni.Cartolano@salt.ch
100307;Mobilezone AG Basel Rail City EKZ;Rail City Basel / Güterstrasse;4053;Basel;Emir Mustafa;MobileZone;Emir.Mustafa@salt.ch
100083;Mobilezone SA Aigle Chablais Centre EKZ;Centre Commercial Aigle / Chemin sous le Grand Pré;1860;Aigle;Ludovic Girardin;MobileZone;Ludovic.Girardin@salt.ch
104732;Mobilezone AG Zürich Neumarkt EKZ;EKZ Neumarkt / Hofwiesenstrasse;8050;Zürich;Gianni Cartolano;MobileZone;Gianni.Cartolano@salt.ch
101540;Mobilezone SA Mont-Blanc;Rue du Mont-Blanc;1201;Genève;Ludovic Girardin;MobileZone;Ludovic.Girardin@salt.ch
103931;Mobilezone AG Sursee Surseepark EKZ;EKZ Surseepark / Bahnhofstrasse;6210;Sursee;Besnik Jakupi;MobileZone;Besnik.Jakupi@salt.ch
103880;Mobilezone AG Stans Länderpark EKZ;EKZ Länderpark / Bitzistrasse;6370;Stans;Besnik Jakupi;MobileZone;Besnik.Jakupi@salt.ch
103567;Mobilezone AG Sarnen EKZ;EKZ MM Sarnen-Center / Nelkenstrasse;6060;Sarnen;Besnik Jakupi;MobileZone;Besnik.Jakupi@salt.ch
103803;Mobilezone AG St. Gallen Neumarkt EKZ;EKZ Neumarkt 1 / St. Leonhardstrasse;9000;St. Gallen;Lucas Amigo;MobileZone;Lucas.Amigo@salt.ch
103896;Mobilezone SA Steinhausen Zugerland EKZ;EKZ Steinhausen Zugerland / Hinterbergstrasse;6312;Steinhausen;Besnik Jakupi;MobileZone;Besnik.Jakupi@salt.ch
108166;Mobilezone AG (OLMA);Suurstoffi;6343;Rotkreuz;Lucas Amigo;MobileZone;Lucas.Amigo@salt.ch
100868;Mobilezone AG Bülach Migros Center EKZ;Center Bülach Süd  Feldstrasse;8180;Bülach;Gianni Cartolano;MobileZone;Gianni.Cartolano@salt.ch
101446;Mobilezone AG Frauenfeld EKZ;Bahnhofstrasse;8500;Frauenfeld;Lucas Amigo;MobileZone;Lucas.Amigo@salt.ch
103231;Mobilezone AG Pfäffikon Seedamm Center EKZ;EKZ Seedam-Center Passage / Gwattstrasse;8808;Pfäffikon;Lucas Amigo;MobileZone;Lucas.Amigo@salt.ch
103804;Mobilezone AG St. Gallen Multergasse;Multergasse;9000;St. Gallen;Lucas Amigo;MobileZone;Lucas.Amigo@salt.ch
104734;Mobilezone AG Zürich Letzipark EKZ;EKZ Letzipark / Baslerstrasse;8066;Zürich;Gianni Cartolano;MobileZone;Gianni.Cartolano@salt.ch
103598;Mobilezone AG Schaffhausen Center Herblingen EKZ;Städliackerstrasse;8207;Schaffhausen;Lucas Amigo;MobileZone;Lucas.Amigo@salt.ch
100892;Mobilezone AG Burgdorf Neumarkt EKZ;EKZ Neumarkt / Lyssachstrasse;3400;Burgdorf;Emir Mustafa;MobileZone;Emir.Mustafa@salt.ch
100922;Mobilezone SA Genève La Praille EKZ;Centre Commercial La Praille Genève / Route des Jeunes;1227;Genève;Ludovic Girardin;MobileZone;Ludovic.Girardin@salt.ch
100808;Mobilezone AG Brugg;Neumarktplatz;5200;Brugg;Besnik Jakupi;MobileZone;Besnik.Jakupi@salt.ch
102180;Mobilezone AG Kriens Pilatus-Markt EKZ;EKZ Pilatusmarkt / Ringstrasse;6010;Kriens;Besnik Jakupi;MobileZone;Besnik.Jakupi@salt.ch
102044;Mobilezone AG Ibach Mythen Center EKZ;EKZ Mythen Center / Mythencenterstrasse;6438;Ibach;Besnik Jakupi;MobileZone;Besnik.Jakupi@salt.ch
101541;Mobilezone SA Genève Balexert EKZ;Centre Balexert Genève /  Av. Louis-Casai;1209;Genève;Ludovic Girardin;MobileZone;Ludovic.Girardin@salt.ch
104178;Mobilezone SA Vevey St. Antoine EKZ;Centre Manor St. Antoine Vevey /  Av. du Général-Guisan;1800;Vevey;Ludovic Girardin;MobileZone;Ludovic.Girardin@salt.ch
100844;Mobilezone AG Buchs Wynecenter EKZ;Bresteneggstrasse;5033;Buchs;Besnik Jakupi;MobileZone;Besnik.Jakupi@salt.ch
103148;Mobilezone AG Oftringen A1 EKZ;Spitalweid;4665;Oftringen;Besnik Jakupi;MobileZone;Besnik.Jakupi@salt.ch
104414;Mobilezone AG Winterthur Rosenberg EKZ;EKZ Rosenberg / Schaffhauserstrasse;8400;Winterthur;Gianni Cartolano;MobileZone;Gianni.Cartolano@salt.ch
101475;Mobilezone SA Fribourg Centre EKZ;Centre Fribourg / Av. de la Gare;1700;Fribourg;Ludovic Girardin;MobileZone;Ludovic.Girardin@salt.ch
104735;Mobilezone AG Zürich Sihl City EKZ;Kalanderplatz;8045;Zürich;Lucas Amigo;MobileZone;Lucas.Amigo@salt.ch
100309;Mobilezone AG Basel Freiestrasse;Freiestrasse;4051;Basel;Emir Mustafa;MobileZone;Emir.Mustafa@salt.ch
104415;Mobilezone AG Winterthur Untertor;Untertor;8400;Winterthur;Gianni Cartolano;MobileZone;Gianni.Cartolano@salt.ch
102973;Mobilezone SA Neuchâtel La Maladière EKZ;Centre Commercial La Maladière / Rue de la Pierre-à-Mazel;2000;Neuchâtel;Ludovic Girardin;MobileZone;Ludovic.Girardin@salt.ch
100786;Mobilezone AG Bremgarten EKZ;EKZ Sunne-Märt / Sonnengutstrasse;5620;Bremgarten;Besnik Jakupi;MobileZone;Besnik.Jakupi@salt.ch
102060;Mobilezone AG Interlaken Rugenpark EKZ;Rugenparkstrasse;3800;Interlaken;Emir Mustafa;MobileZone;Emir.Mustafa@salt.ch
103967;Mobilezone AG Thalwil;Gotthardstrasse;8800;Thalwil;Lucas Amigo;MobileZone;Lucas.Amigo@salt.ch
103719;Mobilezone SA Sion;Rue de la Porte-Neuve;1950;Sion;Ludovic Girardin;MobileZone;Ludovic.Girardin@salt.ch
105455;Mobilezone AG Langendorf EKZ;Fabrikstrasse;4513;Langendorf;Emir Mustafa;MobileZone;Emir.Mustafa@salt.ch
105456;Mobilezone AG Effretikon;Märtplatz;8307;Effretikon;Gianni Cartolano;MobileZone;Gianni.Cartolano@salt.ch
103299;Mobilezone AG Pratteln EKZ;EKZ Grüssen / Grüssenweg;4133;Pratteln;Emir Mustafa;MobileZone;Emir.Mustafa@salt.ch
108169;Mobilezone AG, Web Shop;Suurstoffi;6343;Rotkreuz;Besnik Jakupi;MobileZone;Besnik.Jakupi@salt.ch
108170;Mobilezone AG (Züspa);Suurstoffi;6343;Rotkreuz;Gianni Cartolano;MobileZone;Gianni.Cartolano@salt.ch
104736;Mobilezone AG Zürich Bellevue;Theaterstrasse;8001;Zürich;Gianni Cartolano;MobileZone;Gianni.Cartolano@salt.ch
104737;Mobilezone AG Zürich Löwenstrasse;Löwenstrasse;8001;Zürich;Gianni Cartolano;MobileZone;Gianni.Cartolano@salt.ch
101343;Mobilezone AG Emmenbrücke Emmen Center EKZ;Stauffacherstrasse;6020;Emmenbrücke;Besnik Jakupi;MobileZone;Besnik.Jakupi@salt.ch
102299;Mobilezone SA Lausanne Haldimand;Rue Haldimand;1000;Lausanne;Ludovic Girardin;MobileZone;Ludovic.Girardin@salt.ch
102588;Mobilezone SA Lugano Palazzo Ransilo;Via Pretorio;6900;Lugano;Gianni Cartolano;MobileZone;Gianni.Cartolano@salt.ch
101869;Mobilezone AG Gossau;St-Gallerstrasse;9200;Gossau;Lucas Amigo;MobileZone;Lucas.Amigo@salt.ch
101543;Mobilezone SA Thônex EKZ;Centre Commercial Genève-Thônex / Rue de Genève;1226;Genève;Ludovic Girardin;MobileZone;Ludovic.Girardin@salt.ch
100517;Mobilezone AG Bern Westside EKZ;EKZ Westside / Gilberte de Courgenay-Platz;3027;Bern;Emir Mustafa;MobileZone;Emir.Mustafa@salt.ch
102156;Mobilezone AG Köniz Bläuacker EKZ;EKZ Köniz Bläuacker EKZ / Bläuacker;3098;Köniz;Emir Mustafa;MobileZone;Emir.Mustafa@salt.ch
104090;Mobilezone AG Uster EKZ;Zürichstrasse;8610;Uster;Gianni Cartolano;MobileZone;Gianni.Cartolano@salt.ch
102488;Mobilezone AG Lenzburg EKZ;EKZ Lenzopark / Aarauerstrasse;5603;Lenzburg;Besnik Jakupi;MobileZone;Besnik.Jakupi@salt.ch
100311;Mobilezone AG Basel Stücki EKZ;Hochbergerstrasse;4057;Basel;Emir Mustafa;MobileZone;Emir.Mustafa@salt.ch
100518;Mobilezone AG Bern Wankdorf EKZ;EKZ Wankdorf / Papiermühlestrasse;3014;Bern;Emir Mustafa;MobileZone;Emir.Mustafa@salt.ch
104109;Mobilezone AG Uzwil EKZ;Bahnhofstrasse;9240;Uzwil;Lucas Amigo;MobileZone;Lucas.Amigo@salt.ch
103401;Mobilezone SA Renens EKZ;Centre Commercial Migros Metropole Renens / Rue de la Mèbre;1020;Renens;Ludovic Girardin;MobileZone;Ludovic.Girardin@salt.ch
108171;Mobilezone AG Thun Zentrum Oberland EKZ;Talackerstrasse;3604;Thun;Emir Mustafa;MobileZone;Emir.Mustafa@salt.ch
105422;Mobilezone AG Basel Greifengasse;Greifengasse;4005;Basel;Emir Mustafa;MobileZone;Emir.Mustafa@salt.ch
107482;Mobilezone AG Affoltern am Albis Coop-Park EKZ;Coop Park / Büelstrasse;8910;Affoltern am Albis;Besnik Jakupi;MobileZone;Besnik.Jakupi@salt.ch
107945;Mobilezone AG Basel Barfüsserplatz;Barfüsserplatz;4051;Basel;Emir Mustafa;MobileZone;Emir.Mustafa@salt.ch
107980;Mobilezone AG Schaffhausen Vorstadt;Vorstadt;8200;Schaffhausen;Lucas Amigo;MobileZone;Lucas.Amigo@salt.ch
108011;Mobilezone AG Wohlen Arena EKZ;EKZ Arena / Bahnhofstrasse;5610;Wohlen;Besnik Jakupi;MobileZone;Besnik.Jakupi@salt.ch
104416;Spühler Electronic AG;Zürcherstrasse;8406;Winterthur;Lucas Amigo;SPP Premium;Lucas.Amigo@salt.ch
100055;Elektro Stucki AG;Landstrasse;3715;Adelboden;Emir Mustafa;SPP - Salt Point Partner;Emir.Mustafa@salt.ch
102050;Elektro Cadruvi AG;Via Santeri;7130;Illanz;Lucas Amigo;SPP - Salt Point Partner;Lucas.Amigo@salt.ch
104493;B. Duss AG Wolhusen;Menznauerstrasse;6110;Wolhusen;Besnik Jakupi;SPP - Salt Point Partner;Besnik.Jakupi@salt.ch
108177;UNICOMP Klekner;Gewerbestrasse;6330;Cham;Besnik Jakupi;SPP - Salt Point Partner;Besnik.Jakupi@salt.ch
100148;Neff & Drexel AG;Gaiserstrasse;9050;Appenzell;Lucas Amigo;SPP - Salt Point Partner;Lucas.Amigo@salt.ch
100923;Autos & Mobiles Sarl;Rue Caroline;1227;Les Acacias;Ludovic Girardin;SPP - Salt Point Partner;Ludovic.Girardin@salt.ch
105858;Ibernet Sàrl;Ch. de Maisonneuve;1219;Châtelaine;Ludovic Girardin;SPP - Salt Point Partner;Ludovic.Girardin@salt.ch
105856;Handy Shop Sprengi GmbH;Gerliswilstr.;6020;Emmenbrücke;Besnik Jakupi;SPP - Salt Point Partner;Besnik.Jakupi@salt.ch
104551;Elektro F. Imboden und Söhne AG;Residence;3920;Zermatt;Emir Mustafa;SPP - Salt Point Partner;Emir.Mustafa@salt.ch
103735;Kellenberger & Co.;Winterthurerstrasse;8370;Sirnach;Lucas Amigo;SPP Premium;Lucas.Amigo@salt.ch
104018;Weta Radio & Fernseh AG;Neudorfstrasse;7430;Thusis;Lucas Amigo;SPP Premium;Lucas.Amigo@salt.ch
104041;Kellenberger & Co.;Tösstalstrasse;8488;Turbenthal;Lucas Amigo;SPP Premium;Lucas.Amigo@salt.ch
102307;Digital Planet;Rue Caroline;1003;Lausanne;Ludovic Girardin;SPP Premium;Ludovic.Girardin@salt.ch
107710;Alptel-Shop Herisau;Kasernenstraße;9100;Herisau;Lucas Amigo;SPP Premium;Lucas.Amigo@salt.ch
102061;AMADEUS Interlaken GmbH;Jungfraustrasse;3800;Interlaken;Emir Mustafa;SPP - Salt Point Partner;Emir.Mustafa@salt.ch
101811;Auratel AG;Steinhaldenstrasse;8954;Geroldswil;Lucas Amigo;SPP Premium;Lucas.Amigo@salt.ch
101820;Mantocom SA;Via Campagna;6512;Giubiasco;Emir Mustafa;SPP - Salt Point Partner;Emir.Mustafa@salt.ch
102589;Ing. Carlo Bosia SA;Via St Gottardo;6500;Bellinzona;Gianni Cartolano;SPP Premium;Gianni.Cartolano@salt.ch
102590;Ing. Carlo Bosia SA;Via Beltramina;6900;Lugano;Gianni Cartolano;SPP Premium;Gianni.Cartolano@salt.ch
102591;Ing. Carlo Bosia SA;Via Valle Maggia;6600;Locarno;Gianni Cartolano;SPP Premium;Gianni.Cartolano@salt.ch
102592;Ing. Carlo Bosia SA;Contrada San Marco;6982;Agno;Gianni Cartolano;SPP Premium;Gianni.Cartolano@salt.ch
103295;Plug & Play di Cazzaniga Fabrizio;Via da mez 146;7742;Poschiavo;Lucas Amigo;SPP - Salt Point Partner;Lucas.Amigo@salt.ch
101550;Magicom SA;Rue Paul-Bouchet;1201;Genève;Ludovic Girardin;SPP Premium;Ludovic.Girardin@salt.ch
103559;MB TV Services Sàrl;Rue de la Gruère;2350;Saignelégier;Emir Mustafa;SPP - Salt Point Partner;Emir.Mustafa@salt.ch
105837;H. Quaderer AG, B2C - SPP;Eschnerstrasse;9494;Schaan;Lucas Amigo;SPP Premium;Lucas.Amigo@salt.ch
106762;Hallo Point GmbH;Klybeckstrasse;4057;Basel;Emir Mustafa;SPP - Salt Point Partner;Emir.Mustafa@salt.ch
106764;Siwacom AG;Dörfli;3765;Oberwil im Simmental;Emir Mustafa;SPP - Salt Point Partner;Emir.Mustafa@salt.ch
107616;VintiCom Sagl;V. Solaro ;6900;Massagno;Emir Mustafa;SPP - Salt Point Partner;Emir.Mustafa@salt.ch
108182;Poste CH SA Lausanne 12 Chailly;Avenue de Chailly;1012;Lausanne 12 Chailly;Ludovic Girardin;Schweizerische Post;Ludovic.Girardin@salt.ch
108186;Poste CH SA Lausanne 22 Bergières;Avenue Bergières;1004;Lausanne 22 Bergières;Ludovic Girardin;Schweizerische Post;Ludovic.Girardin@salt.ch
108189;Poste CH SA Lausanne 3 Cour;Avenue de Cour;1000;Lausanne 3 Cour;Ludovic Girardin;Schweizerische Post;Ludovic.Girardin@salt.ch
108193;Post CH AG Prilly;Route de Cossonay;1008;Prilly;Ludovic Girardin;Schweizerische Post;Ludovic.Girardin@salt.ch
108194;Poste CH SA Lausanne 10 La Sallaz;Route d'Oron;1010;Lausanne 10 La Sallaz;Ludovic Girardin;Schweizerische Post;Ludovic.Girardin@salt.ch
108197;Poste CH SA Lausanne 18 Pontaise;Rte des Plaines-du-Loup;1018;Lausanne 18 Pontaise;Ludovic Girardin;Schweizerische Post;Ludovic.Girardin@salt.ch
108199;Poste CH SA Chavannes-près-Renens;Avenue de Préfaully;1022;Chavannes-près-Renens;Ludovic Girardin;Schweizerische Post;Ludovic.Girardin@salt.ch
108200;Poste CH SA Crissier 1;Chemin de Chisaz;1023;Crissier 1;Ludovic Girardin;Schweizerische Post;Ludovic.Girardin@salt.ch
102308;Poste CH SA Ecublens VD;Chemin du Croset;1024;Ecublens VD;Ludovic Girardin;Schweizerische Post;Ludovic.Girardin@salt.ch
108202;Poste CH SA Echandens-Denges;Route de Lonay;1026;Echandens-Denges;Ludovic Girardin;Schweizerische Post;Ludovic.Girardin@salt.ch
108206;Poste CH SA Bussigny;Rue de l'Industrie;1030;Bussigny-près-Lausanne;Ludovic Girardin;Schweizerische Post;Ludovic.Girardin@salt.ch
108210;Poste CH SA Echallens;Place de la Gare;1040;Echallens;Ludovic Girardin;Schweizerische Post;Ludovic.Girardin@salt.ch
108213;Poste CH SA Le Mont-sur-Lausanne;Route de Lausanne;1052;Le Mont-sur-Lausanne;Ludovic Girardin;Schweizerische Post;Ludovic.Girardin@salt.ch
108218;Poste CH SA Epalinges;Place Croix-Blanche;1066;Epalinges;Ludovic Girardin;Schweizerische Post;Ludovic.Girardin@salt.ch
108222;Poste CH SA Lutry;Rte l'Ancienne Ciblerie;1095;Lutry;Ludovic Girardin;Schweizerische Post;Ludovic.Girardin@salt.ch
102309;Post CH AG Morges 1;Rue des Charpentiers;1110;Morges 1;Ludovic Girardin;Schweizerische Post;Ludovic.Girardin@salt.ch
108232;Poste CH SA St-Prex;Rue de la Gare;1162;St-Prex;Ludovic Girardin;Schweizerische Post;Ludovic.Girardin@salt.ch
108233;Poste CH SA Etoy;Route Suisse;1163;Etoy;Ludovic Girardin;Schweizerische Post;Ludovic.Girardin@salt.ch
108237;Post CH AG Rolle;Avenue de la Gare;1180;Rolle;Ludovic Girardin;Schweizerische Post;Ludovic.Girardin@salt.ch
108241;Poste CH SA Gland;Route de Begnins;1196;Gland;Ludovic Girardin;Schweizerische Post;Ludovic.Girardin@salt.ch
108243;Poste CH SA Genève 12 Champel;Avenue de Champel;1206;Genève 12 Champel;Ludovic Girardin;Schweizerische Post;Ludovic.Girardin@salt.ch
108245;Poste CH SA Genève 17 Malagnou;Route de Malagnou;1208;Genève 17 Malagnou;Ludovic Girardin;Schweizerische Post;Ludovic.Girardin@salt.ch
108246;Poste CH SA Genève 19 Petit-Saconnex;Chemin de la Tourelle;1209;Genève 19 Petit-Saconnex;Ludovic Girardin;Schweizerische Post;Ludovic.Girardin@salt.ch
108247;Poste CH SA Genève 2 Cornavin Dépôt;Rue des Gares;1201;Genève 2 Cornavin Dépôt;Ludovic Girardin;Schweizerische Post;Ludovic.Girardin@salt.ch
108248;Poste CH SA Genève 20 CIC;Rue de Varembé;1202;Genève 20 CIC;Ludovic Girardin;Schweizerische Post;Ludovic.Girardin@salt.ch
108249;Poste CH SA Genève 21 Les Pâquis;Rue des Pâquis;1201;Genève 21 Les Pâquis;Ludovic Girardin;Schweizerische Post;Ludovic.Girardin@salt.ch
108250;Poste CH SA Genéve 26 La Praille;Route du Grand-Lancy;1277;Genève 26 La Praille;Ludovic Girardin;Schweizerische Post;Ludovic.Girardin@salt.ch
108251;Poste CH SA Genève 6 Les Eaux-Vives;Rue du 31 Décembre;1207;Genève 6 Les Eaux-Vives;Ludovic Girardin;Schweizerische Post;Ludovic.Girardin@salt.ch
108252;Poste CH SA Genève 7 Servette;Rue de la Servette;1202;Genève 7 Servette;Ludovic Girardin;Schweizerische Post;Ludovic.Girardin@salt.ch
108253;Poste CH SA Genève 8 Jonction;Bvd Carl-Vogt;1205;Genève 8 Jonction;Ludovic Girardin;Schweizerische Post;Ludovic.Girardin@salt.ch
108254;Poste CH SA;Avenue de la Paix 14;1211;Genève 10 Nations Unies;Ludovic Girardin;Schweizerische Post;Ludovic.Girardin@salt.ch
108257;Poste CH SA;Avenue Appia 20;1211;Genève 27 OMS;Ludovic Girardin;Schweizerische Post;Ludovic.Girardin@salt.ch
108258;Poste CH SA Grand-Lancy 1;Avenue Communes-Réunies;1212;Grand-Lancy 1;Ludovic Girardin;Schweizerische Post;Ludovic.Girardin@salt.ch
108259;Poste CH SA Onex;Av. Bois-de-la-Chapelle;1213;Onex;Ludovic Girardin;Schweizerische Post;Ludovic.Girardin@salt.ch
108260;Poste CH SA Petit-Lancy 1;Rue des Bossons;1213;Petit-Lancy 1;Ludovic Girardin;Schweizerische Post;Ludovic.Girardin@salt.ch
108262;Poste CH SA Vernier;Rue du Village;1214;Vernier;Ludovic Girardin;Schweizerische Post;Ludovic.Girardin@salt.ch
108263;Poste CH SA Genève 15 Aéroport Dépôt;Route de l'Aéroport;1215;Genève 15 Aéroport Dépôt;Ludovic Girardin;Schweizerische Post;Ludovic.Girardin@salt.ch
104259;Poste CH SA Village;Chemin Antoine-Verchère;1217;Meyrin 2 Village;Ludovic Girardin;Schweizerische Post;Ludovic.Girardin@salt.ch
101551;Poste CH SA Le Grand-Saconnex;Rue Sonnex;1218;Le Grand-Saconnex;Ludovic Girardin;Schweizerische Post;Ludovic.Girardin@salt.ch
108266;Poste CH SA Châtelaine;Chemin De-Maisonneuve;1219;Châtelaine;Ludovic Girardin;Schweizerische Post;Ludovic.Girardin@salt.ch
108267;Poste CH SA Le Lignon;Place du Lignon;1219;Le Lignon;Ludovic Girardin;Schweizerische Post;Ludovic.Girardin@salt.ch
108268;Poste Vésenaz;Route de Thonon;1222;Vésenaz;Ludovic Girardin;Schweizerische Post;Ludovic.Girardin@salt.ch
108271;Poste CH SA Thônex;Rue de Genève;1226;Thônex;Ludovic Girardin;Schweizerische Post;Ludovic.Girardin@salt.ch
108272;Post CH AG Carouge GE;Boulevard des Promenades;1227;Carouge GE;Ludovic Girardin;Schweizerische Post;Ludovic.Girardin@salt.ch
108273;Poste CH SA Plan-les-Ouates;Place des Aviateurs;1228;Plan-les-Ouates;Ludovic Girardin;Schweizerische Post;Ludovic.Girardin@salt.ch
108276;Poste CH SA Bernex;Rue de Bernex;1233;Bernex;Ludovic Girardin;Schweizerische Post;Ludovic.Girardin@salt.ch
108277;Poste CH SA Vessy;Chemin de la Place-Verte;1234;Vessy;Ludovic Girardin;Schweizerische Post;Ludovic.Girardin@salt.ch
108280;Poste CH SA Puplinge;Rue de Frémis;1241;Puplinge;Ludovic Girardin;Schweizerische Post;Ludovic.Girardin@salt.ch
108281;Poste CH SA Satigny;Route d'Aire-la-Ville;1242;Satigny;Ludovic Girardin;Schweizerische Post;Ludovic.Girardin@salt.ch
108290;Poste CH SA Nyon 1;Rue de la Morâche;1260;Nyon 1;Ludovic Girardin;Schweizerische Post;Ludovic.Girardin@salt.ch
108291;Poste CH SA Nyon 2 Champ-Colin;Route de Divonne;1260;Nyon 2 Champ-Colin;Ludovic Girardin;Schweizerische Post;Ludovic.Girardin@salt.ch
108303;Poste CH SA Versoix;Chemin J.-B.-Vandelle;1290;Versoix;Ludovic Girardin;Schweizerische Post;Ludovic.Girardin@salt.ch
108308;Poste CH SA Coppet;Route Suisse;1296;Coppet;Ludovic Girardin;Schweizerische Post;Ludovic.Girardin@salt.ch
108312;Poste CH SA Cossonay-Ville;Rue des Laurelles;1304;Cossonay-Ville;Ludovic Girardin;Schweizerische Post;Ludovic.Girardin@salt.ch
108318;Poste CH SA Vallorbe;Place du Pont;1337;Vallorbe;Ludovic Girardin;Schweizerische Post;Ludovic.Girardin@salt.ch
108321;Poste CH SA Le Sentier;Grande-Rue;1347;Le Sentier;Ludovic Girardin;Schweizerische Post;Ludovic.Girardin@salt.ch
108323;Poste CH SA Orbe;Rue de la Poste;1350;Orbe;Ludovic Girardin;Schweizerische Post;Ludovic.Girardin@salt.ch
108324;Poste CH SA Chavornay;Route d'Yverdon;1373;Chavornay;Ludovic Girardin;Schweizerische Post;Ludovic.Girardin@salt.ch
108332;Poste CH SA Montagny-Chamard;En Chamard;1442;Montagny-Chamard;Ludovic Girardin;Schweizerische Post;Ludovic.Girardin@salt.ch
108334;Poste CH SA Ste-Croix;Rue Neuve;1450;Ste-Croix;Ludovic Girardin;Schweizerische Post;Ludovic.Girardin@salt.ch
108337;Poste CH SA Estavayer-le-Lac;Place des Bastians;1470;Estavayer-le-Lac;Ludovic Girardin;Schweizerische Post;Ludovic.Girardin@salt.ch
108340;Poste CH SA Moudon;Avenue de Cerjat;1510;Moudon;Ludovic Girardin;Schweizerische Post;Ludovic.Girardin@salt.ch
108346;Poste CH SA Domdidier;Route de Saint-Aubin;1564;Domdidier;Emir Mustafa;Schweizerische Post;Emir.Mustafa@salt.ch
108349;Poste CH SA Avenches;Chemin de la Poste;1580;Avenches;Ludovic Girardin;Schweizerische Post;Ludovic.Girardin@salt.ch
108357;Poste CH SA Oron-la-Ville;Le Bourg;1610;Oron-la-Ville;Ludovic Girardin;Schweizerische Post;Ludovic.Girardin@salt.ch
108360;Poste CH SA Châtel-St-Denis;Route de la Coula;1618;Châtel-St-Denis;Ludovic Girardin;Schweizerische Post;Ludovic.Girardin@salt.ch
108367;Poste CH SA Broc;Rue du Bourg de l'Auge;1636;Broc;Ludovic Girardin;Schweizerische Post;Ludovic.Girardin@salt.ch
108376;Poste CH SA Romont FR;Place Saint-Jacques;1680;Romont FR;Ludovic Girardin;Schweizerische Post;Ludovic.Girardin@salt.ch
108383;Post CH AG Tafers;Schwarzseestrasse;1712;Tafers;Emir Mustafa;Schweizerische Post;Emir.Mustafa@salt.ch
108387;Post CH AG Plaffeien;Dorfstrasse;1716;Plaffeien;Ludovic Girardin;Schweizerische Post;Ludovic.Girardin@salt.ch
108390;Poste CH SA Marly 1;Route du Châtelet;1723;Marly 1;Ludovic Girardin;Schweizerische Post;Ludovic.Girardin@salt.ch
108394;Poste CH SA Farvagny-le-Grand;Impasse du Château;1726;Farvagny;Ludovic Girardin;Schweizerische Post;Ludovic.Girardin@salt.ch
108399;Poste CH SA Villars-sur-Glâne 1;Route de la Berra;1752;Villars-sur-Glâne 1;Ludovic Girardin;Schweizerische Post;Ludovic.Girardin@salt.ch
108407;Poste CH SA Courtepin;Le Centre;1784;Courtepin;Emir Mustafa;Schweizerische Post;Emir.Mustafa@salt.ch
108414;Poste CH SA Blonay;Route du Village;1807;Blonay;Ludovic Girardin;Schweizerische Post;Ludovic.Girardin@salt.ch
108415;Poste CH SA Clarens;Rue du Collège;1815;Clarens;Ludovic Girardin;Schweizerische Post;Ludovic.Girardin@salt.ch
108417;Poste CH SA Montreux 2 Centre;Rue du Théâtre;1820;Montreux 2 Centre;Ludovic Girardin;Schweizerische Post;Ludovic.Girardin@salt.ch
108420;Poste CH SA Château-d'Oex;Grand Rue;1660;Château-d'Oex;Ludovic Girardin;Schweizerische Post;Ludovic.Girardin@salt.ch
108421;Poste CH SA Villeneuve VD;Avenue Comtes de Savoie;1844;Villeneuve VD;Ludovic Girardin;Schweizerische Post;Ludovic.Girardin@salt.ch
108424;Poste CH SA Leysin;Rue Louis Favez;1854;Leysin;Ludovic Girardin;Schweizerische Post;Ludovic.Girardin@salt.ch
108429;Poste CH SA Monthey 1;Avenue de la Gare;1870;Monthey 1;Ludovic Girardin;Schweizerische Post;Ludovic.Girardin@salt.ch
100869;Poste CH SA;Rue Du Fay 2 A;1870;Monthey 2 Ville;Ludovic Girardin;Schweizerische Post;Ludovic.Girardin@salt.ch
104091;Poste CH SA Bex;Rue Centrale;1880;Bex;Ludovic Girardin;Schweizerische Post;Ludovic.Girardin@salt.ch
108431;Poste CH SA Villars-sur-Ollon;Avenue Centrale;1884;Villars-sur-Ollon;Ludovic Girardin;Schweizerische Post;Ludovic.Girardin@salt.ch
108432;Poste CH SA St-Maurice;Place de la Gare;1890;St-Maurice;Ludovic Girardin;Schweizerische Post;Ludovic.Girardin@salt.ch
108435;Poste CH SA Vouvry;Avenue de Savoie;1896;Vouvry;Ludovic Girardin;Schweizerische Post;Ludovic.Girardin@salt.ch
108440;Poste CH SA Saxon;Place de Gottefrey;1907;Saxon;Ludovic Girardin;Schweizerische Post;Ludovic.Girardin@salt.ch
108448;Poste CH SA Fully;Rue Maison de Commune;1926;Fully;Ludovic Girardin;Schweizerische Post;Ludovic.Girardin@salt.ch
108450;Poste CH SA Le Châble VS;Route de Verbier;1934;Le Châble VS;Ludovic Girardin;Schweizerische Post;Ludovic.Girardin@salt.ch
108451;Poste CH SA;Rue de la Poste 2 A;1936;Verbier;Ludovic Girardin;Schweizerische Post;Ludovic.Girardin@salt.ch
108454;Poste CH SA;Avenue Ritz;1950;Sion 2 Nord;Ludovic Girardin;Schweizerische Post;Ludovic.Girardin@salt.ch
108461;Poste CH SA Conthey;Route des Rottes;1964;Conthey;Ludovic Girardin;Schweizerische Post;Ludovic.Girardin@salt.ch
108483;Poste CH SA Colombier NE;Rue du Verger;2013;Colombier NE;Ludovic Girardin;Schweizerische Post;Ludovic.Girardin@salt.ch
108490;Poste CH SA Peseux;Rue de la Chapelle;2034;Peseux;Ludovic Girardin;Schweizerische Post;Ludovic.Girardin@salt.ch
108493;Poste CH SA Cernier;Rue de l'Epervier;2053;Cernier;Ludovic Girardin;Schweizerische Post;Ludovic.Girardin@salt.ch
108502;Poste CH SA Couvet;Grand'Rue;2108;Couvet;Ludovic Girardin;Schweizerische Post;Ludovic.Girardin@salt.ch
108515;Poste CH SA Saignelégier;Rue de la Gare;2350;Saignelégier;Emir Mustafa;Schweizerische Post;Emir.Mustafa@salt.ch
108519;Post CH AG Biel/Bienne 6 Bözingen/Boujean;Bözingenstrasse;2500;Biel/Bienne 6 Bözingen/Boujean;Emir Mustafa;Schweizerische Post;Emir.Mustafa@salt.ch
108520;Post CH AG Biel/Bienne 7 Madretsch;Brüggstrasse;2503;Biel/Bienne 7 Madretsch;Emir Mustafa;Schweizerische Post;Emir.Mustafa@salt.ch
108521;Post CH AG Biel/Bienne 8 Mett/Mâche;PoststrassE;2504;Biel/Bienne 8 Mett/Mâche;Emir Mustafa;Schweizerische Post;Emir.Mustafa@salt.ch
108533;Post CH AG Lengnau BE;Solothurnstrasse;2543;Lengnau BE;Emir Mustafa;Schweizerische Post;Emir.Mustafa@salt.ch
108539;Post CH AG Brügg BE;Bahnhofstrasse;2555;Brügg BE;Emir Mustafa;Schweizerische Post;Emir.Mustafa@salt.ch
108540;Post CH AG Studen BE;Hauptstrasse;2557;Studen BE;Emir Mustafa;Schweizerische Post;Emir.Mustafa@salt.ch
108542;Post CH AG Nidau;Weyermattstrasse;2560;Nidau;Emir Mustafa;Schweizerische Post;Emir.Mustafa@salt.ch
108551;Poste CH SA St-Imier;Rue Agassiz;2610;St-Imier;Emir Mustafa;Schweizerische Post;Emir.Mustafa@salt.ch
108552;Poste CH SA Tavannes;Rue du Pont;2710;Tavannes;Emir Mustafa;Schweizerische Post;Emir.Mustafa@salt.ch
108555;Poste CH SA Tramelan;Rue de la Gare;2720;Tramelan;Emir Mustafa;Schweizerische Post;Emir.Mustafa@salt.ch
108559;Poste CH SA Moutier;Rue Centrale;2740;Moutier 1;Emir Mustafa;Schweizerische Post;Emir.Mustafa@salt.ch
108577;Poste CH SA Porrentruy 1;Rue du Jura;2900;Porrentruy 1;Emir Mustafa;Schweizerische Post;Emir.Mustafa@salt.ch
108578;Poste CH SA Porrentruy 2 Chaumont;Rue de la Chaumont;2900;Porrentruy 2 Chaumont;Emir Mustafa;Schweizerische Post;Emir.Mustafa@salt.ch
108588;Poste CH SA Courgenay;Rue Paul Montavon;2950;Courgenay;Emir Mustafa;Schweizerische Post;Emir.Mustafa@salt.ch
108590;Post CH AG Bern 14 Mattenhof;Belpstrasse;3007;Bern 14 Mattenhof;Emir Mustafa;Schweizerische Post;Emir.Mustafa@salt.ch
108591;Post CH AG Bern 15 Weltpostverein;Weltpoststrasse;3000;Bern 15 Weltpostverein;Emir Mustafa;Schweizerische Post;Emir.Mustafa@salt.ch
108596;Post CH AG Bern 6 Kirchenfeld;Helvetiastrasse;3000;Bern 6 Kirchenfeld;Emir Mustafa;Schweizerische Post;Emir.Mustafa@salt.ch
108598;Post CH AG Bern 9 Länggasse;Länggassstrasse;3012;Bern 9 Länggasse;Emir Mustafa;Schweizerische Post;Emir.Mustafa@salt.ch
108601;Post CH AG Bern 27 Bethlehem;Fellerstrasse;3027;Bern 27 Bethlehem;Emir Mustafa;Schweizerische Post;Emir.Mustafa@salt.ch
108607;Post CH AG Münchenbuchsee;Höheweg;3053;Münchenbuchsee;Emir Mustafa;Schweizerische Post;Emir.Mustafa@salt.ch
108609;Post CH AG Ittigen;Talgut-Zentrum;3063;Ittigen;Emir Mustafa;Schweizerische Post;Emir.Mustafa@salt.ch
108610;Post CH AG Bolligen Dorf;Dorfmärit;3065;Bolligen Dorf;Emir Mustafa;Schweizerische Post;Emir.Mustafa@salt.ch
108613;Post CH AG Ostermundigen 1;Bernstrasse;3072;Ostermundigen 1;Emir Mustafa;Schweizerische Post;Emir.Mustafa@salt.ch
108614;Post CH AG Gümligen;Füllerichstrasse;3073;Gümligen;Emir Mustafa;Schweizerische Post;Emir.Mustafa@salt.ch
108615;Post CH AG Muri b. Bern;Mettlengässli;3074;Muri b. Bern;Emir Mustafa;Schweizerische Post;Emir.Mustafa@salt.ch
108617;Post CH AG Worb;Bollstrasse;3076;Worb;Emir Mustafa;Schweizerische Post;Emir.Mustafa@salt.ch
108618;Post CH AG Wabern;Seftigenstrasse;3084;Wabern;Emir Mustafa;Schweizerische Post;Emir.Mustafa@salt.ch
108621;Post CH AG Liebefeld;Schwarzenburgstrasse;3097;Liebefeld;Emir Mustafa;Schweizerische Post;Emir.Mustafa@salt.ch
108622;Post CH AG Köniz;Stapfenstrasse;3098;Köniz;Emir Mustafa;Schweizerische Post;Emir.Mustafa@salt.ch
108624;Post CH AG Münsingen;Bahnhofplatz;3110;Münsingen;Emir Mustafa;Schweizerische Post;Emir.Mustafa@salt.ch
108630;Post CH AG Belp;Rubigenstrasse;3123;Belp;Emir Mustafa;Schweizerische Post;Emir.Mustafa@salt.ch
108634;Post CH AG Riggisberg;Vordere Gasse;3132;Riggisberg;Emir Mustafa;Schweizerische Post;Emir.Mustafa@salt.ch
108636;Post CH AG Schwarzenburg;Bahnhofstrasse;3150;Schwarzenburg;Emir Mustafa;Schweizerische Post;Emir.Mustafa@salt.ch
108640;Post CH AG Flamatt;Bernstrasse;3175;Flamatt;Emir Mustafa;Schweizerische Post;Emir.Mustafa@salt.ch
108642;Post CH AG Laupen BE;Bärenplatz;3177;Laupen BE;Emir Mustafa;Schweizerische Post;Emir.Mustafa@salt.ch
108647;Post CH AG Düdingen;Hauptstrasse;3186;Düdingen;Emir Mustafa;Schweizerische Post;Emir.Mustafa@salt.ch
108650;Post CH AG Kerzers;Murtenstrasse;3210;Kerzers;Emir Mustafa;Schweizerische Post;Emir.Mustafa@salt.ch
108654;Post CH AG Ins;Müntschemiergasse;3232;Ins;Emir Mustafa;Schweizerische Post;Emir.Mustafa@salt.ch
108664;Post CH AG Aarberg;Bahnhofstrasse;3270;Aarberg;Emir Mustafa;Schweizerische Post;Emir.Mustafa@salt.ch
108670;Post CH AG Jegenstorf;Bernstrasse;3303;Jegenstorf;Emir Mustafa;Schweizerische Post;Emir.Mustafa@salt.ch
108673;Post CH AG Urtenen-Schönbühl;Zentrumsplatz;3322;Urtenen-Schönbühl;Emir Mustafa;Schweizerische Post;Emir.Mustafa@salt.ch
108677;Post CH AG Wangen an der Aare;Bahnhofallee;3380;Wangen an der Aare;Emir Mustafa;Schweizerische Post;Emir.Mustafa@salt.ch
108682;Post CH AG Kirchberg BE;Eystrasse;3422;Kirchberg BE;Emir Mustafa;Schweizerische Post;Emir.Mustafa@salt.ch
108684;Post CH AG Utzenstorf;Unterdorfstrasse;3427;Utzenstorf;Emir Mustafa;Schweizerische Post;Emir.Mustafa@salt.ch
108688;Post CH AG Sumiswald;Bahnhofstrasse;3454;Sumiswald;Emir Mustafa;Schweizerische Post;Emir.Mustafa@salt.ch
108694;Post CH AG Konolfingen;Emmentalstrasse;3510;Konolfingen;Emir Mustafa;Schweizerische Post;Emir.Mustafa@salt.ch
108699;Post CH AG Langnau im Emmental;Bahnhofstrasse;3550;Langnau im Emmental;Emir Mustafa;Schweizerische Post;Emir.Mustafa@salt.ch
108701;Post CH AG Thun 4 Strättligen-Markt;Schulstrasse;3604;Thun 4 Strättligen Markt;Emir Mustafa;Schweizerische Post;Emir.Mustafa@salt.ch
108702;Post CH AG Thun 7 Länggasse;Länggasse;3607;Thun 7 Länggasse;Emir Mustafa;Schweizerische Post;Emir.Mustafa@salt.ch
108704;Post CH AG Steffisburg 1;Unterdorfstrasse;3612;Steffisburg 1;Emir Mustafa;Schweizerische Post;Emir.Mustafa@salt.ch
108708;Post CH AG Heimberg;Blümlisalpstrasse;3627;Heimberg;Emir Mustafa;Schweizerische Post;Emir.Mustafa@salt.ch
108716;Post CH AG Uetendorf;Dorfstrasse;3661;Uetendorf;Emir Mustafa;Schweizerische Post;Emir.Mustafa@salt.ch
108723;Post CH AG Frutigen;Dorfstrasse;3714;Frutigen;Emir Mustafa;Schweizerische Post;Emir.Mustafa@salt.ch
108724;Post CH AG Adelboden;Dorfstrasse;3715;Adelboden;Emir Mustafa;Schweizerische Post;Emir.Mustafa@salt.ch
108730;Post CH AG Zweisimmen;Thunstrasse;3770;Zweisimmen;Emir Mustafa;Schweizerische Post;Emir.Mustafa@salt.ch
108732;Post CH AG Lenk im Simmental;Kronenplatz;3775;Lenk im Simmental;Emir Mustafa;Schweizerische Post;Emir.Mustafa@salt.ch
108734;Post CH AG Gstaad;Bahnhofplatz;3780;Gstaad;Emir Mustafa;Schweizerische Post;Emir.Mustafa@salt.ch
108742;Post CH AG Grindelwald;Dorfstrasse;3818;Grindelwald;Emir Mustafa;Schweizerische Post;Emir.Mustafa@salt.ch
108748;Post CH AG Meiringen;Bahnhofstrasse;3860;Meiringen;Emir Mustafa;Schweizerische Post;Emir.Mustafa@salt.ch
108750;Post CH AG Naters;Landstrasse;3904;Naters;Emir Mustafa;Schweizerische Post;Emir.Mustafa@salt.ch
108751;Post CH AG Saas Fee;Postplatz;3906;Saas-Fee;Emir Mustafa;Schweizerische Post;Emir.Mustafa@salt.ch
108769;Poste CH SA Crans-Montana 1;Avenue de la Gare;3963;Crans-Montana 1;Ludovic Girardin;Schweizerische Post;Ludovic.Girardin@salt.ch
108786;Post CH AG Basel 3 Spalen;Schützenmattstrasse;4003;Basel 3 Spalen;Emir Mustafa;Schweizerische Post;Emir.Mustafa@salt.ch
108787;Post CH AG Basel 7 Horburg;Bläsiring;4057;Basel 7 Horburg;Emir Mustafa;Schweizerische Post;Emir.Mustafa@salt.ch
108789;Post CH AG Basel 9 Ahornstrasse;Ahornstrasse;4055;Basel 9 Ahornstrasse;Emir Mustafa;Schweizerische Post;Emir.Mustafa@salt.ch
108790;Post CH AG Basel 10 Elisabethen;Kirschgartenstrasse;4051;Basel 10 Elisabethen;Emir Mustafa;Schweizerische Post;Emir.Mustafa@salt.ch
108792;Post CH AG Basel 12 Kannenfeld;Burgfelderstrasse;4055;Basel 12 Kannenfeld;Emir Mustafa;Schweizerische Post;Emir.Mustafa@salt.ch
108793;Post CH AG Basel 13 Voltacenter;Hüningerstrasse;4055;Basel 13 Voltastrasse;Emir Mustafa;Schweizerische Post;Emir.Mustafa@salt.ch
108794;Post CH AG Basel 15 Neuweilerplatz;Neubadstrasse;4045;Basel 15 Neuweilerplatz;Emir Mustafa;Schweizerische Post;Emir.Mustafa@salt.ch
108795;Post CH AG Basel 16 Bad. Bahnhof;Schwarzwaldallee;4016;Basel 16 Bad. Bahnhof;Emir Mustafa;Schweizerische Post;Emir.Mustafa@salt.ch
108796;Post CH AG Basel 18 Gundeldingen;Güterstrasse;4053;Basel 18 Gundeldingen;Emir Mustafa;Schweizerische Post;Emir.Mustafa@salt.ch
108797;Post CH AG Basel 19 Kleinhüningen;Hochbergerstrasse;4057;Basel 19 Kleinhüningen;Emir Mustafa;Schweizerische Post;Emir.Mustafa@salt.ch
108802;Post CH AG Bottmingen;Schlossgasse;4103;Bottmingen;Emir Mustafa;Schweizerische Post;Emir.Mustafa@salt.ch
108803;Post CH AG Oberwil BL;Konsumstrasse;4104;Oberwil BL;Emir Mustafa;Schweizerische Post;Emir.Mustafa@salt.ch
108805;Post CH AG Therwil;Bahnhofstrasse;4106;Therwil;Emir Mustafa;Schweizerische Post;Emir.Mustafa@salt.ch
108809;Post CH AG Allschwil 1;Baslerstrasse;4123;Allschwil 1;Emir Mustafa;Schweizerische Post;Emir.Mustafa@salt.ch
108810;Post CH AG Riehen 1;Bahnhofstrasse;4125;Riehen 1;Emir Mustafa;Schweizerische Post;Emir.Mustafa@salt.ch
108812;Post CH AG Muttenz 1;Hauptstrasse;4132;Muttenz 1;Emir Mustafa;Schweizerische Post;Emir.Mustafa@salt.ch
108814;Post CH AG Münchenstein 1;Stöckackerstrasse;4142;Münchenstein 1;Emir Mustafa;Schweizerische Post;Emir.Mustafa@salt.ch
108816;Post CH AG Dornach;Amthausstrasse;4143;Dornach 1;Emir Mustafa;Schweizerische Post;Emir.Mustafa@salt.ch
108817;Post CH AG Arlesheim;Postplatz;4144;Arlesheim;Emir Mustafa;Schweizerische Post;Emir.Mustafa@salt.ch
108818;Post CH AG Aesch BL;Hauptstrasse;4147;Aesch BL;Emir Mustafa;Schweizerische Post;Emir.Mustafa@salt.ch
108824;Post CH AG Breitenbach;Brislachstrasse;4226;Breitenbach;Emir Mustafa;Schweizerische Post;Emir.Mustafa@salt.ch
108826;Post CH AG Augst BL;Poststrasse;4302;Augst BL;Emir Mustafa;Schweizerische Post;Emir.Mustafa@salt.ch
108829;Post CH AG Rheinfelden 1;Kaiserstrasse;4310;Rheinfelden 1;Emir Mustafa;Schweizerische Post;Emir.Mustafa@salt.ch
108831;Post CH AG Möhlin;Bachstrasse;4313;Möhlin;Emir Mustafa;Schweizerische Post;Emir.Mustafa@salt.ch
108835;Post CH AG Stein AG;Langackerstrasse;4332;Stein AG;Besnik Jakupi;Schweizerische Post;Besnik.Jakupi@salt.ch
108838;Post CH AG Füllinsdorf;Mühlerainstrasse;4414;Füllinsdorf;Emir Mustafa;Schweizerische Post;Emir.Mustafa@salt.ch
108839;Post CH AG Lausen;Grammontstrasse;4415;Lausen;Emir Mustafa;Schweizerische Post;Emir.Mustafa@salt.ch
108840;Post CH AG Bubendorf;Gewerbestrasse;4416;Bubendorf;Emir Mustafa;Schweizerische Post;Emir.Mustafa@salt.ch
108849;Post CH AG Sissach;Postgasse;4450;Sissach;Emir Mustafa;Schweizerische Post;Emir.Mustafa@salt.ch
108853;Post CH AG Gelterkinden;Poststrasse;4460;Gelterkinden;Emir Mustafa;Schweizerische Post;Emir.Mustafa@salt.ch
108855;Post CH AG Solothurn 2 Stadt;Wengistrasse;4500;Solothurn 2 Stadt;Emir Mustafa;Schweizerische Post;Emir.Mustafa@salt.ch
108858;Post CH AG Bellach;Dorfstrasse;4512;Bellach;Emir Mustafa;Schweizerische Post;Emir.Mustafa@salt.ch
108862;Post CH AG;Hauptstrasse 73;4528;Zuchwil;Emir Mustafa;Schweizerische Post;Emir.Mustafa@salt.ch
108870;Post CH AG Derendingen;Hauptstrasse;4552;Derendingen;Emir Mustafa;Schweizerische Post;Emir.Mustafa@salt.ch
108872;Post CH AG Biberist;Poststrasse;4562;Biberist;Emir Mustafa;Schweizerische Post;Emir.Mustafa@salt.ch
108873;Post CH AG Gerlafingen;Kriegstettenstrasse;4563;Gerlafingen;Emir Mustafa;Schweizerische Post;Emir.Mustafa@salt.ch
108880;Post CH AG Wangen b. Olten;Dorfstrasse;4612;Wangen b. Olten;Besnik Jakupi;Schweizerische Post;Besnik.Jakupi@salt.ch
108881;Post CH AG Hägendorf;Bachstrasse;4614;Hägendorf;Besnik Jakupi;Schweizerische Post;Besnik.Jakupi@salt.ch
108884;Post CH AG Egerkingen;Bahnhofstrasse;4622;Egerkingen;Besnik Jakupi;Schweizerische Post;Besnik.Jakupi@salt.ch
108890;Post CH AG Trimbach;Baslerstrasse;4632;Trimbach;Besnik Jakupi;Schweizerische Post;Besnik.Jakupi@salt.ch
108895;Post CH AG Dulliken;Bahnhofstrasse;4657;Dulliken;Besnik Jakupi;Schweizerische Post;Besnik.Jakupi@salt.ch
108897;Post CH AG Aarburg;Städtchen;4663;Aarburg;Besnik Jakupi;Schweizerische Post;Besnik.Jakupi@salt.ch
108898;Post CH AG Oftringen 1;Oberfeldstrasse;4665;Oftringen 1;Besnik Jakupi;Schweizerische Post;Besnik.Jakupi@salt.ch
108899;Post CH AG Oensingen;Solothurnstrasse;4702;Oensingen;Besnik Jakupi;Schweizerische Post;Besnik.Jakupi@salt.ch
108901;Post CH AG Niederbipp;Wydenstrasse;4704;Niederbipp;Besnik Jakupi;Schweizerische Post;Besnik.Jakupi@salt.ch
108908;Post CH AG Rothrist;Bernstrasse;4852;Rothrist;Besnik Jakupi;Schweizerische Post;Besnik.Jakupi@salt.ch
108920;Post CH AG Huttwil;Bahnhofstrasse;4950;Huttwil;Emir Mustafa;Schweizerische Post;Emir.Mustafa@salt.ch
108923;Post CH AG Schönenwerd;Bahnhofstrasse;5012;Schönenwerd;Besnik Jakupi;Schweizerische Post;Besnik.Jakupi@salt.ch
108929;Post CH AG Buchs AG;Postweg;5033;Buchs AG;Besnik Jakupi;Schweizerische Post;Besnik.Jakupi@salt.ch
108930;Post CH AG Suhr;Suhreparkweg;5034;Suhr;Besnik Jakupi;Schweizerische Post;Besnik.Jakupi@salt.ch
108932;Post CH AG Oberentfelden;Dorfstrasse;5036;Oberentfelden;Besnik Jakupi;Schweizerische Post;Besnik.Jakupi@salt.ch
108934;Post CH AG Schöftland;Dorfstrasse;5040;Schöftland;Besnik Jakupi;Schweizerische Post;Besnik.Jakupi@salt.ch
108936;Post CH AG Frick;Widenplatz;5070;Frick;Emir Mustafa;Schweizerische Post;Emir.Mustafa@salt.ch
108940;Post CH AG Laufenburg;Bahnhofstrasse;5080;Laufenburg;Emir Mustafa;Schweizerische Post;Emir.Mustafa@salt.ch
108943;Post CH AG Wildegg;Poststrasse;5103;Wildegg;Besnik Jakupi;Schweizerische Post;Besnik.Jakupi@salt.ch
108950;Post CH AG Birr-Lupfig;Wydenstrasse;5242;Birr-Lupfig;Besnik Jakupi;Schweizerische Post;Besnik.Jakupi@salt.ch
108951;Post CH AG Turgi;Bahnhofstrasse;5300;Turgi;Besnik Jakupi;Schweizerische Post;Besnik.Jakupi@salt.ch
108954;Post CH AG Döttingen-Klingnau;Hauptstrasse;5312;Döttingen;Emir Mustafa;Schweizerische Post;Emir.Mustafa@salt.ch
108960;Post CH AG Bad Zurzach;Hauptstrasse;5330;Bad Zurzach;Emir Mustafa;Schweizerische Post;Emir.Mustafa@salt.ch
108966;Post CH AG Nussbaumen AG;Schulstrasse;5415;Nussbaumen AG;Besnik Jakupi;Schweizerische Post;Besnik.Jakupi@salt.ch
108967;Post CH AG Untersiggenthal;Landstrasse;5417;Untersiggenthal;Besnik Jakupi;Schweizerische Post;Besnik.Jakupi@salt.ch
108971;Post CH AG Wettingen Dorf;Bahnhofstrasse;5430;Wettingen Dorf;Besnik Jakupi;Schweizerische Post;Besnik.Jakupi@salt.ch
108972;Post CH SA Wettingen 3 Langenstein;Staffelstrasse;5430;Wettingen 3 Langenstein;Besnik Jakupi;Schweizerische Post;Besnik.Jakupi@salt.ch
108973;Post CH AG Neuenhof;Zürcherstrasse;5432;Neuenhof;Besnik Jakupi;Schweizerische Post;Besnik.Jakupi@salt.ch
108975;Post CH AG Fislisbach;Badenerstrasse;5442;Fislisbach;Besnik Jakupi;Schweizerische Post;Besnik.Jakupi@salt.ch
108985;Post CH AG Mellingen;Birrfeldstrasse;5507;Mellingen;Besnik Jakupi;Schweizerische Post;Besnik.Jakupi@salt.ch
108993;Post CH AG Villmergen;Dorfplatz;5612;Villmergen;Besnik Jakupi;Schweizerische Post;Besnik.Jakupi@salt.ch
108997;Post CH AG Bremgarten AG 1;Zürcherstrasse;5620;Bremgarten AG 1;Besnik Jakupi;Schweizerische Post;Besnik.Jakupi@salt.ch
109002;Post CH AG Muri AG;Seetalstrasse;5630;Muri AG;Besnik Jakupi;Schweizerische Post;Besnik.Jakupi@salt.ch
109005;Post CH AG Sins;Aarauerstrasse;5643;Sins;Besnik Jakupi;Schweizerische Post;Besnik.Jakupi@salt.ch
109008;Post CH AG Seon;Seetalstrasse;5703;Seon;Besnik Jakupi;Schweizerische Post;Besnik.Jakupi@salt.ch
109012;Post CH AG Gränichen;Mitteldorfstrasse;5722;Gränichen;Besnik Jakupi;Schweizerische Post;Besnik.Jakupi@salt.ch
109013;Post CH AG Unterkulm;Zentrumsplatz;5726;Unterkulm;Besnik Jakupi;Schweizerische Post;Besnik.Jakupi@salt.ch
109015;Post CH SA Reinach AG;Postplatz;5734;Reinach AG;Besnik Jakupi;Schweizerische Post;Besnik.Jakupi@salt.ch
109016;Post CH AG Menziken;Gässli;5737;Menziken;Besnik Jakupi;Schweizerische Post;Besnik.Jakupi@salt.ch
109021;Post CH AG Luzern 4 Obergrund;Bundesstrasse;6000;Luzern 4 Obergrund;Besnik Jakupi;Schweizerische Post;Besnik.Jakupi@salt.ch
109022;Post CH AG Luzern 6 Zürichstrasse;Denkmalstrasse;6000;Luzern;Besnik Jakupi;Schweizerische Post;Besnik.Jakupi@salt.ch
109023;Post CH AG Luzern 7 Hirschengraben;Hirschengraben;6000;Luzern 7 Hirschengraben;Besnik Jakupi;Schweizerische Post;Besnik.Jakupi@salt.ch
109025;Post CH AG Luzern Littau;Fanghöfli;6014;Littau;Besnik Jakupi;Schweizerische Post;Besnik.Jakupi@salt.ch
109027;Post CH AG Ruswil;Hellbühlerstrasse;6017;Ruswil;Besnik Jakupi;Schweizerische Post;Besnik.Jakupi@salt.ch
109030;Post CH AG Emmenbrücke 2 Sprengi;Erlenstrasse;6020;Emmenbrücke 2 Sprengi;Besnik Jakupi;Schweizerische Post;Besnik.Jakupi@salt.ch
109032;Post CH AG Rothenburg;Stationsstrasse;6023;Rothenburg;Besnik Jakupi;Schweizerische Post;Besnik.Jakupi@salt.ch
109034;Post CH AG Ebikon;Riedmattstrasse;6030;Ebikon;Besnik Jakupi;Schweizerische Post;Besnik.Jakupi@salt.ch
109038;Post CH AG Root;Bahnhofstrasse;6037;Root;Besnik Jakupi;Schweizerische Post;Besnik.Jakupi@salt.ch
109041;Post CH AG Meggen;Hauptstrasse;6045;Meggen;Besnik Jakupi;Schweizerische Post;Besnik.Jakupi@salt.ch
109043;Post CH AG Horw;Gemeindehausplatz;6048;Horw;Besnik Jakupi;Schweizerische Post;Besnik.Jakupi@salt.ch
109045;Post CH AG Alpnach Dorf;Brünigstrasse;6055;Alpnach Dorf;Besnik Jakupi;Schweizerische Post;Besnik.Jakupi@salt.ch
109051;Post CH AG Malters;Luzernstrasse;6102;Malters;Besnik Jakupi;Schweizerische Post;Besnik.Jakupi@salt.ch
109052;Post CH AG Wolhusen;Bahnhofstrasse;6110;Wolhusen;Besnik Jakupi;Schweizerische Post;Besnik.Jakupi@salt.ch
109054;Post CH AG Willisau;Bahnhofplatz;6130;Willisau;Besnik Jakupi;Schweizerische Post;Besnik.Jakupi@salt.ch
109060;Post CH AG Schüpfheim;Bahnhofstrasse;6170;Schüpfheim;Besnik Jakupi;Schweizerische Post;Besnik.Jakupi@salt.ch
109063;Post CH AG Escholzmatt;Hauptstrasse;6182;Escholzmatt;Besnik Jakupi;Schweizerische Post;Besnik.Jakupi@salt.ch
109066;Post CH AG Sempach Stadt;Oberstadt;6204;Sempach Stadt;Besnik Jakupi;Schweizerische Post;Besnik.Jakupi@salt.ch
109067;Post CH AG Neuenkirch;Luzernstrasse;6206;Neuenkirch;Besnik Jakupi;Schweizerische Post;Besnik.Jakupi@salt.ch
109071;Post CH AG Beromünster;Bahnhofstrasse;6215;Beromünster;Besnik Jakupi;Schweizerische Post;Besnik.Jakupi@salt.ch
109077;Post CH AG Nebikon;Egolzwilerstrasse;6244;Nebikon;Besnik Jakupi;Schweizerische Post;Besnik.Jakupi@salt.ch
109081;Post CH AG Reiden;Grossmatte;6260;Reiden;Besnik Jakupi;Schweizerische Post;Besnik.Jakupi@salt.ch
109085;Post CH AG Hochdorf;Hauptstrasse;6280;Hochdorf;Besnik Jakupi;Schweizerische Post;Besnik.Jakupi@salt.ch
109090;Post CH AG Zug 3 Herti;Hertizentrum;6303;Zug 3 Herti;Besnik Jakupi;Schweizerische Post;Besnik.Jakupi@salt.ch
109092;Post CH AG Steinhausen;Zugerstrasse;6312;Steinhausen;Besnik Jakupi;Schweizerische Post;Besnik.Jakupi@salt.ch
109094;Post CH AG Unterägeri;Zugerstrasse;6314;Unterägeri;Besnik Jakupi;Schweizerische Post;Besnik.Jakupi@salt.ch
109095;Post CH AG Oberägeri;Poststrasse;6315;Oberägeri;Besnik Jakupi;Schweizerische Post;Besnik.Jakupi@salt.ch
109099;Post CH AG Cham;Zugerstrasse;6330;Cham 1;Besnik Jakupi;Schweizerische Post;Besnik.Jakupi@salt.ch
109100;Post CH AG Hünenberg;Eichengasse;6331;Hünenberg;Besnik Jakupi;Schweizerische Post;Besnik.Jakupi@salt.ch
109102;Post CH AG Baar;Dorfstrasse;6340;Baar 1;Besnik Jakupi;Schweizerische Post;Besnik.Jakupi@salt.ch
109104;Post CH AG Rotkreuz;Dorfmatt;6343;Rotkreuz;Besnik Jakupi;Schweizerische Post;Besnik.Jakupi@salt.ch
109108;Post CH AG Stansstad;Bahnhofstrasse;6362;Stansstad;Besnik Jakupi;Schweizerische Post;Besnik.Jakupi@salt.ch
109110;Post CH AG Buochs;Beckenriederstrasse;6374;Buochs;Emir Mustafa;Schweizerische Post;Emir.Mustafa@salt.ch
109114;Post CH AG Engelberg;Bahnhofstrasse;6390;Engelberg;Besnik Jakupi;Schweizerische Post;Besnik.Jakupi@salt.ch
109115;Post CH AG Küssnacht am Rigi;Bahnhofstrasse;6403;Küssnacht am Rigi;Besnik Jakupi;Schweizerische Post;Besnik.Jakupi@salt.ch
109117;Post CH AG Goldau;Bahnhofstrasse;6410;Goldau;Besnik Jakupi;Schweizerische Post;Besnik.Jakupi@salt.ch
109125;Post CH AG Brunnen;Parkstrasse;6440;Brunnen;Besnik Jakupi;Schweizerische Post;Besnik.Jakupi@salt.ch
109130;Post CH AG Schattdorf;Adlergartenstrasse;6467;Schattdorf;Besnik Jakupi;Schweizerische Post;Besnik.Jakupi@salt.ch
109134;Posta CH SA Bellinzona 2 Semine;Via Francesco Borromini;6500;Bellinzona 2 Semine;Emir Mustafa;Schweizerische Post;Emir.Mustafa@salt.ch
109135;Posta CH SA Bellinzona 5 S. Paolo;Via San Gottardo;6500;Bellinzona 5 S. Paolo;Gianni Cartolano;Schweizerische Post;Gianni.Cartolano@salt.ch
109136;Posta CH SA Giubiasco;Via Bellinzona;6512;Giubiasco;Gianni Cartolano;Schweizerische Post;Gianni.Cartolano@salt.ch
109139;Posta CH SA Cugnasco;Piazza della Posta;6516;Cugnasco;Gianni Cartolano;Schweizerische Post;Gianni.Cartolano@salt.ch
109145;Posta CH SA Roveredo GR;Al Stalón;6535;Roveredo GR;Gianni Cartolano;Schweizerische Post;Gianni.Cartolano@salt.ch
109152;Posta CH SA S. Antonino;Via della Posta;6592;S. Antonino;Emir Mustafa;Schweizerische Post;Emir.Mustafa@salt.ch
109157;Posta CH SA Tenero;Via al Giardino;6598;Tenero;Gianni Cartolano;Schweizerische Post;Gianni.Cartolano@salt.ch
109158;Posta CH SA Locarno 4 Solduno;Via Alberto Franzoni;6600;Locarno 4 Solduno;Gianni Cartolano;Schweizerische Post;Gianni.Cartolano@salt.ch
109160;Posta CH SA Ascona;Via Borgo;6612;Ascona;Gianni Cartolano;Schweizerische Post;Gianni.Cartolano@salt.ch
109162;Posta CH SA Losone;Via Locarno;6616;Losone;Gianni Cartolano;Schweizerische Post;Gianni.Cartolano@salt.ch
109165;Posta CH SA Minusio;Via San Gottardo;6648;Minusio;Gianni Cartolano;Schweizerische Post;Gianni.Cartolano@salt.ch
109174;Posta CH SA Biasca;Via Parallela;6710;Biasca;Gianni Cartolano;Schweizerische Post;Gianni.Cartolano@salt.ch
109182;Posta CH SA Faido;Via Cantonale;6760;Faido;Emir Mustafa;Schweizerische Post;Emir.Mustafa@salt.ch
109190;Posta CH SA Taverne;Via Carvina;6807;Taverne;Gianni Cartolano;Schweizerische Post;Gianni.Cartolano@salt.ch
109191;Posta CH SA Lamone-Cadempino;Via Cantonale;6814;Lamone-Cadempino;Gianni Cartolano;Schweizerische Post;Gianni.Cartolano@salt.ch
109193;Posta CH SA Bissone;Piazza F. Zorzi;6816;Bissone;Emir Mustafa;Schweizerische Post;Emir.Mustafa@salt.ch
109197;Posta CH SA Riva S. Vitale;Piazza Grande;6826;Riva San Vitale;Emir Mustafa;Schweizerische Post;Emir.Mustafa@salt.ch
109202;Posta CH SA Serfontana;Viale Serfontana;6834;Serfontana;Gianni Cartolano;Schweizerische Post;Gianni.Cartolano@salt.ch
109206;Posta CH SA Stabio;Via Cantonale;6855;Stabio;Gianni Cartolano;Schweizerische Post;Gianni.Cartolano@salt.ch
109212;Posta CH SA Lugano 2 Paradiso;Via San Salvatore;6900;Lugano 2 Paradiso;Gianni Cartolano;Schweizerische Post;Gianni.Cartolano@salt.ch
109214;Posta CH SA Lugano 4 Molino Nuovo;Via Rinaldo Simen;6900;Lugano 4 Molino Nuovo;Gianni Cartolano;Schweizerische Post;Gianni.Cartolano@salt.ch
109215;Posta CH SA Lugano 6 Cassarate;Piazza Riscossa;6900;Lugano 6 Cassarate;Gianni Cartolano;Schweizerische Post;Gianni.Cartolano@salt.ch
109217;Posta CH SA Lugano 8 Massagno;Via San Gottardo;6900;Lugano 8 Massagno;Gianni Cartolano;Schweizerische Post;Gianni.Cartolano@salt.ch
109219;Posta CH SA Grancia;Centro Grancia;6916;Grancia;Emir Mustafa;Schweizerische Post;Emir.Mustafa@salt.ch
109230;Posta CH SA Bioggio;Via della Posta;6934;Bioggio;Gianni Cartolano;Schweizerische Post;Gianni.Cartolano@salt.ch
109242;Posta CH SA Viganello;Via Luigi Taddei;6962;Viganello;Gianni Cartolano;Schweizerische Post;Gianni.Cartolano@salt.ch
109243;Posta CH SA Pregassona;Via Vedreggio;6963;Pregassona;Gianni Cartolano;Schweizerische Post;Gianni.Cartolano@salt.ch
109246;Posta CH SA Agno;Via Stazione;6982;Agno;Gianni Cartolano;Schweizerische Post;Gianni.Cartolano@salt.ch
109249;Posta CH SA Caslano;Via Stazione;6987;Caslano;Gianni Cartolano;Schweizerische Post;Gianni.Cartolano@salt.ch
109253;Post CH AG Chur 1 Annahme;Gürtelstrasse;7000;Chur 1 Annahme;Lucas Amigo;Schweizerische Post;Lucas.Amigo@salt.ch
109254;Post CH AG Chur 4 Ringstrasse;Ringstrasse;7000;Chur 4 Ringstrasse;Lucas Amigo;Schweizerische Post;Lucas.Amigo@salt.ch
109258;Post CH AG Domat/Ems;Via Nova;7013;Domat/Ems;Lucas Amigo;Schweizerische Post;Lucas.Amigo@salt.ch
109260;Post CH AG Flims Dorf;Via Nova;7017;Flims Dorf;Lucas Amigo;Schweizerische Post;Lucas.Amigo@salt.ch
109262;Post CH AG Arosa;Poststrasse;7050;Arosa;Lucas Amigo;Schweizerische Post;Lucas.Amigo@salt.ch
109265;Post CH AG Lenzerheide/Lai;Voa Principala;7078;Lenzerheide/Lai;Lucas Amigo;Schweizerische Post;Lucas.Amigo@salt.ch
109267;Post CH AG Ilanz;Glennerstrasse;7130;Ilanz;Lucas Amigo;Schweizerische Post;Lucas.Amigo@salt.ch
109284;Post CH AG Klosters;Bahnhofstrasse;7250;Klosters;Lucas Amigo;Schweizerische Post;Lucas.Amigo@salt.ch
109285;Post CH AG Davos 3 Dorf;Bahnhofstrasse;7260;Davos 3 Dorf;Lucas Amigo;Schweizerische Post;Lucas.Amigo@salt.ch
109287;Post CH AG Landquart;Schulstrasse;7302;Landquart;Lucas Amigo;Schweizerische Post;Lucas.Amigo@salt.ch
109289;Post CH AG Bad Ragaz;Am Platz;7310;Bad Ragaz;Lucas Amigo;Schweizerische Post;Lucas.Amigo@salt.ch
109290;Post CH AG Sargans;Bahnhofstrasse;7320;Sargans;Lucas Amigo;Schweizerische Post;Lucas.Amigo@salt.ch
109297;Post CH AG Thusis;Neudorfstrasse;7430;Thusis;Lucas Amigo;Schweizerische Post;Lucas.Amigo@salt.ch
109307;Post CH AG St. Moritz;Via Serlas;7500;St. Moritz 1;Lucas Amigo;Schweizerische Post;Lucas.Amigo@salt.ch
109309;Post CH AG Samedan;Plazzet;7503;Samedan;Lucas Amigo;Schweizerische Post;Lucas.Amigo@salt.ch
109320;Post CH AG Scuol;Stradun;7550;Scuol;Lucas Amigo;Schweizerische Post;Lucas.Amigo@salt.ch
109325;Post CH AG Poschiavo;Vial da la Stazion;7742;Poschiavo;Lucas Amigo;Schweizerische Post;Lucas.Amigo@salt.ch
109328;Post CH AG Zürich 27 Enge;Gutenbergstrasse;8002;Zürich 27 Enge;Gianni Cartolano;Schweizerische Post;Gianni.Cartolano@salt.ch
109329;Post CH AG Zürich 31 Industriequartier;Limmatstrasse;8005;Zürich 31 Industriequartier;Gianni Cartolano;Schweizerische Post;Gianni.Cartolano@salt.ch
109330;Post CH AG Zürich 33 Oberstrass;Universitätstrasse;8006;Zürich 33 Oberstrass;Gianni Cartolano;Schweizerische Post;Gianni.Cartolano@salt.ch
109331;Post CH AG Zürich 34 Riesbach;Seefeldstrasse;8008;Zürich 34 Riesbach;Gianni Cartolano;Schweizerische Post;Gianni.Cartolano@salt.ch
109333;Post CH AG Zürich 38 Wollishofen;Albisstrasse;8038;Zürich 38 Wollishofen;Gianni Cartolano;Schweizerische Post;Gianni.Cartolano@salt.ch
109335;Post CH AG Zürich 41 Leimbach;Leimbachstrasse;8041;Zürich 41 Leimbach;Gianni Cartolano;Schweizerische Post;Gianni.Cartolano@salt.ch
109336;Post CH AG Zürich 42 Schaffhauserplatz;Hofwiesenstrasse;8057;Zürich 42 Schaffhauserplatz;Gianni Cartolano;Schweizerische Post;Gianni.Cartolano@salt.ch
109339;Post CH AG Zürich 46 Affoltern;Jonas-Furrer-Strasse;8046;Zürich 46 Affoltern;Gianni Cartolano;Schweizerische Post;Gianni.Cartolano@salt.ch
109340;Post CH AG Zürich 47 Albisrieden;Albisriederstrasse;8047;Zürich 47 Albisrieden;Gianni Cartolano;Schweizerische Post;Gianni.Cartolano@salt.ch
109341;Post CH AG Zürich 48 Altstetten;Altstetterstrasse;8048;Zürich 48 Altstetten;Gianni Cartolano;Schweizerische Post;Gianni.Cartolano@salt.ch
109342;Post CH AG Zürich 49 Höngg;Gsteigstrasse;8049;Zürich 49 Höngg;Gianni Cartolano;Schweizerische Post;Gianni.Cartolano@salt.ch
109343;Post CH AG Zürich 50 Oerlikon;Baumackerstrasse;8050;Zürich 50 Oerlikon;Gianni Cartolano;Schweizerische Post;Gianni.Cartolano@salt.ch
109344;Post CH AG Zürich 51 Schwamendingen;Winterthurerstrasse 525;8051;Zürich 51 Schwamendingen;Gianni Cartolano;Schweizerische Post;Gianni.Cartolano@salt.ch
109345;Post CH AG Zürich 52 Seebach;Bahnhaldenstrasse;8052;Zürich 52 Seebach;Gianni Cartolano;Schweizerische Post;Gianni.Cartolano@salt.ch
109346;Post CH AG Zürich 53 Witikon;Witikonerstrasse;8053;Zürich 53 Witikon;Gianni Cartolano;Schweizerische Post;Gianni.Cartolano@salt.ch
109347;Post CH AG Zürich 60 Flughafen Annahme;Vorfahrt Ankunft;8302;Zürich 60 Flughafen;Gianni Cartolano;Schweizerische Post;Gianni.Cartolano@salt.ch
109349;Post CH AG Zürich 66 Letzibach;Baslerstrasse;8066;Zürich 66 Letzipark;Gianni Cartolano;Schweizerische Post;Gianni.Cartolano@salt.ch
109350;Post CH AG Oberengstringen;Zentrum;8102;Oberengstringen;Gianni Cartolano;Schweizerische Post;Gianni.Cartolano@salt.ch
109351;Post CH AG Unterengstringen;Weiningerstrasse;8103;Unterengstringen;Gianni Cartolano;Schweizerische Post;Gianni.Cartolano@salt.ch
109353;Post CH AG Regensdorf;Zentrum;8105;Regensdorf 1;Gianni Cartolano;Schweizerische Post;Gianni.Cartolano@salt.ch
109355;Post CH AG Buchs ZH;Meierwiesenstrasse;8107;Buchs ZH;Gianni Cartolano;Schweizerische Post;Gianni.Cartolano@salt.ch
109356;Post CH AG Dällikon;Regensdorferstrasse;8108;Dällikon;Gianni Cartolano;Schweizerische Post;Gianni.Cartolano@salt.ch
109358;Post CH AG Fällanden;Wigartenstrasse;8117;Fällanden;Gianni Cartolano;Schweizerische Post;Gianni.Cartolano@salt.ch
109363;Post CH AG Zumikon;Dorfplatz;8126;Zumikon;Gianni Cartolano;Schweizerische Post;Gianni.Cartolano@salt.ch
109364;Post CH AG Egg b. Zürich;Dorfplatz;8132;Egg b. Zürich;Gianni Cartolano;Schweizerische Post;Gianni.Cartolano@salt.ch
109367;Post CH AG Langnau am Albis;Breitwiesstrasse;8135;Langnau am Albis;Gianni Cartolano;Schweizerische Post;Gianni.Cartolano@salt.ch
109371;Post CH AG Glattbrugg;Schaffhauserstrasse;8152;Glattbrugg;Gianni Cartolano;Schweizerische Post;Gianni.Cartolano@salt.ch
109373;Post CH AG Rümlang;Bahnhofstrasse;8153;Rümlang;Gianni Cartolano;Schweizerische Post;Gianni.Cartolano@salt.ch
109375;Post CH AG Niederhasli;Dorfstrasse;8155;Niederhasli;Gianni Cartolano;Schweizerische Post;Gianni.Cartolano@salt.ch
109376;Post CH AG Dielsdorf;Bahnhofstrasse;8157;Dielsdorf;Gianni Cartolano;Schweizerische Post;Gianni.Cartolano@salt.ch
109392;Post CH AG Schaffhausen 7 Herblingen;Herblingerstrasse;8207;Schaffhausen 7 Herblingen;Lucas Amigo;Schweizerische Post;Lucas.Amigo@salt.ch
109393;Post CH AG Neuhausen am Rheinfall 1;Zentralstrasse;8212;Neuhausen am Rheinfall 1;Lucas Amigo;Schweizerische Post;Lucas.Amigo@salt.ch
109400;Post CH AG Thayngen;Bahnhofstrasse;8240;Thayngen;Lucas Amigo;Schweizerische Post;Lucas.Amigo@salt.ch
109402;Post CH AG Diessenhofen;Bahnhofstrasse;8253;Diessenhofen;Lucas Amigo;Schweizerische Post;Lucas.Amigo@salt.ch
109403;Post CH AG Stein am Rhein 1;Bahnhofstrasse;8260;Stein am Rhein 1;Lucas Amigo;Schweizerische Post;Lucas.Amigo@salt.ch
109406;Post CH AG Steckborn;Seestrasse;8266;Steckborn;Lucas Amigo;Schweizerische Post;Lucas.Amigo@salt.ch
109411;Post CH AG Glattzentrum b. Wallisellen;Neue Winterthurerstrasse;8304;Glattzentrum b. Wallisellen;Gianni Cartolano;Schweizerische Post;Gianni.Cartolano@salt.ch
109412;Post CH AG Bassersdorf;Poststrasse;8303;Bassersdorf;Gianni Cartolano;Schweizerische Post;Gianni.Cartolano@salt.ch
109413;Post CH AG Wallisellen;Bahnhofplatz;8304;Wallisellen;Gianni Cartolano;Schweizerische Post;Gianni.Cartolano@salt.ch
109414;Post CH AG Dietlikon;Säntisstrasse;8305;Dietlikon;Gianni Cartolano;Schweizerische Post;Gianni.Cartolano@salt.ch
109415;Post CH AG Brüttisellen;Zürichstrasse;8306;Brüttisellen;Gianni Cartolano;Schweizerische Post;Gianni.Cartolano@salt.ch
109419;Post CH AG Fehraltorf;Geerenstrasse;8320;Fehraltorf;Gianni Cartolano;Schweizerische Post;Gianni.Cartolano@salt.ch
109420;Post CH AG Pfäffikon ZH;Bahnhofstrasse;8330;Pfäffikon ZH;Gianni Cartolano;Schweizerische Post;Gianni.Cartolano@salt.ch
109423;Post CH AG Hinwil;Bahnhofstrasse;8340;Hinwil;Gianni Cartolano;Schweizerische Post;Gianni.Cartolano@salt.ch
109427;Post CH AG Aadorf;Bahnhofstrasse;8355;Aadorf;Lucas Amigo;Schweizerische Post;Lucas.Amigo@salt.ch
109430;Post CH AG Sirnach;Wilerstrasse;8370;Sirnach;Lucas Amigo;Schweizerische Post;Lucas.Amigo@salt.ch
109433;Post CH AG Winterthur 4 Oberwinterthur;Römerstrasse;8404;Winterthur 4 Oberwinterthur;Gianni Cartolano;Schweizerische Post;Gianni.Cartolano@salt.ch
109434;Post CH AG Winterthur 5 Seen;Kanzleistrasse;8405;Winterthur 5 Seen;Gianni Cartolano;Schweizerische Post;Gianni.Cartolano@salt.ch
109435;Post CH AG Winterthur 6 Töss;Zürcherstrasse;8406;Winterthur 6 Töss;Gianni Cartolano;Schweizerische Post;Gianni.Cartolano@salt.ch
109436;Post CH AG Winterthur 8 Wülflingen;Wülflingerstrasse;8408;Winterthur 8 Wülflingen;Gianni Cartolano;Schweizerische Post;Gianni.Cartolano@salt.ch
109437;Post CH AG Winterthur 11 Deutweg;Pflanzschulstrasse;8400;Winterthur 11 Deutweg;Gianni Cartolano;Schweizerische Post;Gianni.Cartolano@salt.ch
109441;Post CH AG Embrach;Dorfstrasse;8424;Embrach;Gianni Cartolano;Schweizerische Post;Gianni.Cartolano@salt.ch
109446;Post CH AG Andelfingen;Landstrasse;8450;Andelfingen;Lucas Amigo;Schweizerische Post;Lucas.Amigo@salt.ch
109448;Post CH AG Seuzach;Birchstrasse;8472;Seuzach;Gianni Cartolano;Schweizerische Post;Gianni.Cartolano@salt.ch
109453;Post CH AG Turbenthal;Bahnhofstrasse;8488;Turbenthal;Gianni Cartolano;Schweizerische Post;Gianni.Cartolano@salt.ch
109465;Post CH AG Müllheim Dorf;Frauenfelderstrasse;8555;Müllheim Dorf;Lucas Amigo;Schweizerische Post;Lucas.Amigo@salt.ch
109481;Post CH AG Schwerzenbach;Bahnstrasse;8603;Schwerzenbach;Gianni Cartolano;Schweizerische Post;Gianni.Cartolano@salt.ch
109482;Post CH AG Volketswil;Im Zentrum;8604;Volketswil;Gianni Cartolano;Schweizerische Post;Gianni.Cartolano@salt.ch
109493;Post CH AG Gossau ZH;Laufenbachstrasse;8625;Gossau ZH;Gianni Cartolano;Schweizerische Post;Gianni.Cartolano@salt.ch
109494;Post CH AG Wetzikon ZH 1;Poststrasse;8620;Wetzikon ZH 1;Gianni Cartolano;Schweizerische Post;Gianni.Cartolano@salt.ch
109497;Post CH AG Hombrechtikon;Rütistrasse;8634;Hombrechtikon;Gianni Cartolano;Schweizerische Post;Gianni.Cartolano@salt.ch
109499;Post CH AG Wald ZH;Poststrasse;8636;Wald ZH;Gianni Cartolano;Schweizerische Post;Gianni.Cartolano@salt.ch
109501;PostShop Jona;Allmeindstrasse;8645;Jona;Lucas Amigo;Schweizerische Post;Lucas.Amigo@salt.ch
109502;Post CH AG Küsnacht ZH;Kohlrainstrasse;8700;Küsnacht ZH;Gianni Cartolano;Schweizerische Post;Gianni.Cartolano@salt.ch
109503;Post CH AG Zollikon Dorf;Rotfluhstrasse;8702;Zollikon Dorf;Gianni Cartolano;Schweizerische Post;Gianni.Cartolano@salt.ch
109504;Post CH AG Erlenbach ZH;Bahnhofstrasse;8703;Erlenbach ZH;Gianni Cartolano;Schweizerische Post;Gianni.Cartolano@salt.ch
109505;Post CH AG Herrliberg;Forchstrasse;8704;Herrliberg;Gianni Cartolano;Schweizerische Post;Gianni.Cartolano@salt.ch
109506;Post CH AG Meilen;Dorfstrasse;8706;Meilen;Gianni Cartolano;Schweizerische Post;Gianni.Cartolano@salt.ch
109508;Post CH AG Männedorf;Bahnhofstrasse;8708;Männedorf;Gianni Cartolano;Schweizerische Post;Gianni.Cartolano@salt.ch
109509;Post CH AG Stäfa;Bahnhofstrasse;8712;Stäfa;Gianni Cartolano;Schweizerische Post;Gianni.Cartolano@salt.ch
109515;Post CH AG Eschenbach SG;Rössligass;8733;Eschenbach SG;Lucas Amigo;Schweizerische Post;Lucas.Amigo@salt.ch
109525;Post CH AG Thalwil;Gotthardstrasse;8800;Thalwil;Lucas Amigo;Schweizerische Post;Lucas.Amigo@salt.ch
109527;Post CH AG Rüschlikon;Bahnhofstrasse;8803;Rüschlikon;Lucas Amigo;Schweizerische Post;Lucas.Amigo@salt.ch
109528;Post CH AG Richterswil;Seestrasse;8805;Richterswil;Lucas Amigo;Schweizerische Post;Lucas.Amigo@salt.ch
109531;Post CH AG Horgen 1;Bahnhofstrasse;8810;Horgen 1;Lucas Amigo;Schweizerische Post;Lucas.Amigo@salt.ch
109534;Post CH AG Wollerau;Roosstrasse;8832;Wollerau;Lucas Amigo;Schweizerische Post;Lucas.Amigo@salt.ch
109536;Post CH AG Schindellegi;Pfäffikonerstrasse;8834;Schindellegi;Lucas Amigo;Schweizerische Post;Lucas.Amigo@salt.ch
109538;Post CH AG Einsiedeln;Bahnhofplatz;8840;Einsiedeln;Lucas Amigo;Schweizerische Post;Lucas.Amigo@salt.ch
109541;Post CH AG Lachen SZ;Feldstrasse;8853;Lachen SZ;Lucas Amigo;Schweizerische Post;Lucas.Amigo@salt.ch
109543;Post CH AG Siebnen;Glarnerstrasse;8854;Siebnen;Lucas Amigo;Schweizerische Post;Lucas.Amigo@salt.ch
109551;Post CH AG Niederurnen;Ziegelbrückstrasse;8867;Niederurnen;Lucas Amigo;Schweizerische Post;Lucas.Amigo@salt.ch
109554;Post CH AG Pizolpark (Mels);Grossfeldstrasse;8887;Pizolpark (Mels);Lucas Amigo;Schweizerische Post;Lucas.Amigo@salt.ch
109555;Post CH AG Walenstadt;Bahnhofstrasse;8880;Walenstadt;Lucas Amigo;Schweizerische Post;Lucas.Amigo@salt.ch
109560;Post CH AG Urdorf;Birmensdorferstrasse;8902;Urdorf;Lucas Amigo;Schweizerische Post;Lucas.Amigo@salt.ch
109561;Post CH AG Birmensdorf ZH;Poststrasse;8903;Birmensdorf ZH;Gianni Cartolano;Schweizerische Post;Gianni.Cartolano@salt.ch
109567;Poste CH AG Affoltern am Albis;Bahnhofplatz;8910;Affoltern am Albis;Besnik Jakupi;Schweizerische Post;Besnik.Jakupi@salt.ch
109568;Post CH AG Obfelden;Dorfstrasse;8912;Obfelden;Besnik Jakupi;Schweizerische Post;Besnik.Jakupi@salt.ch
109577;Post CH AG Dietikon 1;Neumattstrasse;8953;Dietikon 1;Besnik Jakupi;Schweizerische Post;Besnik.Jakupi@salt.ch
109579;Post CH AG Geroldswil;Poststrasse;8954;Geroldswil;Besnik Jakupi;Schweizerische Post;Besnik.Jakupi@salt.ch
109582;Post CH AG Berikon - Widen;Bahnhofstrasse;8965;Berikon 1;Besnik Jakupi;Schweizerische Post;Besnik.Jakupi@salt.ch
109591;Post CH AG St. Gallen 14 Bruggen;Zürcher Strasse;9014;St. Gallen 14 Bruggen;Lucas Amigo;Schweizerische Post;Lucas.Amigo@salt.ch
109593;Post CH AG St. Gallen 16 Neudorf;Rorschacher Strasse;9016;St. Gallen 16 Neudorf;Lucas Amigo;Schweizerische Post;Lucas.Amigo@salt.ch
109599;Post CH AG Appenzell;Poststrasse;9050;Appenzell;Lucas Amigo;Schweizerische Post;Lucas.Amigo@salt.ch
109600;Post CH AG Teufen AR;Dorf;9053;Teufen AR;Lucas Amigo;Schweizerische Post;Lucas.Amigo@salt.ch
109606;Post CH AG Herisau 2 Dorf;Poststrasse;9100;Herisau 2 Dorf;Lucas Amigo;Schweizerische Post;Lucas.Amigo@salt.ch
109611;Post CH AG Degersheim;Poststrasse;9113;Degersheim;Lucas Amigo;Schweizerische Post;Lucas.Amigo@salt.ch
109616;Post CH AG Bischofszell;Poststrasse;9220;Bischofszell;Lucas Amigo;Schweizerische Post;Lucas.Amigo@salt.ch
109617;Post CH AG Flawil 1;Bahnhofstrasse;9230;Flawil 1;Lucas Amigo;Schweizerische Post;Lucas.Amigo@salt.ch
109619;Post CH AG Uzwil;Bahnhofstrasse;9240;Uzwil;Lucas Amigo;Schweizerische Post;Lucas.Amigo@salt.ch
109620;Post CH AG Oberuzwil;Wiesentalstrasse;9242;Oberuzwil;Lucas Amigo;Schweizerische Post;Lucas.Amigo@salt.ch
109624;Post CH AG Wittenbach;Im Zentrum;9300;Wittenbach;Lucas Amigo;Schweizerische Post;Lucas.Amigo@salt.ch
109631;Post CH AG Rorschach;Neugasse;9400;Rorschach;Lucas Amigo;Schweizerische Post;Lucas.Amigo@salt.ch
109633;Post CH AG Goldach;Hauptstrasse;9403;Goldach;Lucas Amigo;Schweizerische Post;Lucas.Amigo@salt.ch
109635;Post CH AG Heiden;Kirchplatz;9410;Heiden;Lucas Amigo;Schweizerische Post;Lucas.Amigo@salt.ch
109639;Post CH AG Rheineck;Löwenhofstrasse;9424;Rheineck;Lucas Amigo;Schweizerische Post;Lucas.Amigo@salt.ch
109643;Post CH AG St. Margrethen SG;Bahnhofplatz;9430;St. Margrethen SG;Lucas Amigo;Schweizerische Post;Lucas.Amigo@salt.ch
109645;Post CH AG Heerbrugg;Marktstrasse;9435;Heerbrugg;Lucas Amigo;Schweizerische Post;Lucas.Amigo@salt.ch
109649;Post CH AG Widnau;Poststrasse;9443;Widnau;Lucas Amigo;Schweizerische Post;Lucas.Amigo@salt.ch
109650;Post CH AG Diepoldsau;Vordere Kirchstrasse;9444;Diepoldsau;Lucas Amigo;Schweizerische Post;Lucas.Amigo@salt.ch
109652;Post CH AG Altstätten SG;Rathausplat;9450;Altstätten SG;Lucas Amigo;Schweizerische Post;Lucas.Amigo@salt.ch
109661;Post CH AG Grabs;Staatsstrasse;9472;Grabs;Lucas Amigo;Schweizerische Post;Lucas.Amigo@salt.ch
109669;Post CH AG Rickenbach b. Wil;Breitestrasse;9532;Rickenbach b. Wil;Lucas Amigo;Schweizerische Post;Lucas.Amigo@salt.ch
109672;Post CH AG Münchwilen TG;Schmiedstrasse;9542;Münchwilen TG;Lucas Amigo;Schweizerische Post;Lucas.Amigo@salt.ch
109679;Post CH AG Bazenheid;Poststrasse;9602;Bazenheid;Lucas Amigo;Schweizerische Post;Lucas.Amigo@salt.ch
109684;Post CH AG Wattwil;Poststrasse;9630;Wattwil;Lucas Amigo;Schweizerische Post;Lucas.Amigo@salt.ch
107661;Post CH AG Olten 4 Hammer;Solothurnerstrasse;4600;Olten;Besnik Jakupi;Schweizerische Post;Besnik.Jakupi@salt.ch
104801;BLS - Christian Aveni CBO - 104801;Rue du Caudray;1020;Renens;Christian Aveni;B2B DSF KAM & SME;Christian.Aveni@salt.ch
109712;Zirkumflex AG;Gewerbestrasse;6330;Cham;Andreas Maag;Business Resellers;martin.keller2@salt.ch
100986;Abalon Telecom IT AG;Gewerbestrasse;6330;Cham;Andreas Maag;Business Resellers;martin.keller2@salt.ch
109715;VTX Services SA;Route de Lavaux;1009;Pully;Ludovic Girardin;Business Resellers;Ludovic.Girardin@salt.ch
104802;e-fon AG;Albulastrasse;8048;Zürich;Andreas Maag;Business Resellers;martin.keller2@salt.ch
100452;Salt (Liechtenstein) AG;Neugrüt;9496;Balzers;Carmine Papa;Business Resellers;martin.keller2@salt.ch
109689;Telecom Liechtenstein AG;Schaanerstrasse;9490;Vaduz;Carmine Papa;Business Resellers;martin.keller2@salt.ch
106508;deep AG;Commercialstrasse;7000;Chur;Carmine Papa;Business Resellers;martin.keller2@salt.ch
109723;AM - Raquel Lopez - 109723;Alexander-Schoni Strasse;2503;Biel;Christian Aveni;B2B DSF KAM & SME;Christian.Aveni@salt.ch
109734;LAS  Alban Alidemi  109734;Alexander-Schoni Strasse;2503;Biel;Julien Chanrion;Customer Care B2B;Julien.Chanrion@salt.ch
109741;Lead Gen - Amel Boukhebbache - 109741;Rue de Caudrey;1020;Renens;Uwe Raulf;Customer Care B2B;Uwe.Raulf@salt.ch
103583;H. Quaderer AG, B2B - SBP - 103583;Eschnerstrasse;9494;Schaan;Bektas Atilgan;B2B Partner for SME;martin.keller2@salt.ch
104086;mobilezone ag - 104086;Suurstoffi;6343;Rotkreuz;Bektas Atilgan;B2B Partner for SME;martin.keller2@salt.ch
101901;4G Consulting & Communications SA;Via Linoleum;6512;Giubiasco;Gianni Cartolano;SPP Premium;Gianni.Cartolano@salt.ch
108070;Mobilezone AG Olten Sälipark;Louis Giroud Strasse;4600;Olten;Besnik Jakupi;MobileZone;Besnik.Jakupi@salt.ch
108060;Post CH AG La Chaux-de-Fonds 5 Les Entilles;Avenue Léopold-Robert;2300;La Chaux de Fonds;Ludovic Girardin;Schweizerische Post;Ludovic.Girardin@salt.ch
103370;Mobilezone Business AG;Tüfenbergstrasse;9107;Urnäsch;Lucas Amigo;MobileZone;Lucas.Amigo@salt.ch
108100;Customer Care OMD - Coop;Rue du Caudray 4;1020;Renens;Uwe Raulf;CoopMobile;Uwe.Raulf@salt.ch
110133;Electronova Luzern GmbH;Bundesstrasse;6003;Luzern;Besnik Jakupi;SPP Premium;Besnik.Jakupi@salt.ch
110100;Media Point Service GmbH;Büchelstrasse;9000;St.Gallen;Lucas Amigo;SPP - Salt Point Partner;Lucas.Amigo@salt.ch
110259;VASP - Partner Account Management;Rue du Caudray;1020;Renens;Ludovic Girardin;Business Resellers;Ludovic.Girardin@salt.ch
110290;WALFRA Computer GmbH;Hintergasse;5615;Fahrwangen;Besnik Jakupi;SPP - Salt Point Partner;Besnik.Jakupi@salt.ch
110338;Handyshop Swiss Mellingen;Lenzburgerstrasse;5507;Mellingen;Besnik Jakupi;SPP Premium;Besnik.Jakupi@salt.ch
110346;handy.ch Romanshorn;Alleestrasse;8590;Romanshorn;Lucas Amigo;SPP Premium;Lucas.Amigo@salt.ch
110351;Mobilezone SA Morbio Serfontana EKZ;Centro Morbio Serfontana / Viale Serfontana;6836;Morbio;Gianni Cartolano;MobileZone;Gianni.Cartolano@salt.ch
110353;Arco, Radio TV HiFi Video;Via Principala;7031;Laax;Lucas Amigo;SPP - Salt Point Partner;Lucas.Amigo@salt.ch
110359;IT Business Services GmbH;Altgraben;4624;Härkingen;Emir Mustafa;SPP - Salt Point Partner;Emir.Mustafa@salt.ch
110360;mobilit AG;Altgraben;4624;Härkingen;Emir Mustafa;SPP - Salt Point Partner;Emir.Mustafa@salt.ch
110365;Mobilezone AG St. Gallen Zürcherstrasse EKZ;Zürcherstrasse;9015;St. Gallen;Lucas Amigo;MobileZone;Lucas.Amigo@salt.ch
110370;Spider Web GmbH;Bremgarterstrasse;8967;Widen;Besnik Jakupi;SPP - Salt Point Partner;Besnik.Jakupi@salt.ch
110390;go4mobile ag;Stauffacherstrasse;3014;Bern;Emir Mustafa;SPP - Salt Point Partner;Emir.Mustafa@salt.ch
110395;Tech / phone Sàrl;Rue de lEcluse;2740;Moutier;Ludovic Girardin;SPP Premium;Ludovic.Girardin@salt.ch
110404;Ticinomedia Sagl;Via del Passetto;6604;Solduno;Gianni Cartolano;SPP Premium;Gianni.Cartolano@salt.ch
110414;Mobilezone SA Payerne;Grand Rue;1530;Payerne;Ludovic Girardin;MobileZone;Ludovic.Girardin@salt.ch
110429;Post CH AG Glattpark (Opfikon);Wright-Strasse;8152;Glattpark (Opfikon);Gianni Cartolano;Schweizerische Post;Gianni.Cartolano@salt.ch
110433;Novatel;Kirchstrasse;8953;Dietikon;Lucas Amigo;SPP - Salt Point Partner;Lucas.Amigo@salt.ch
110440;Mobilezone SA Genève Petit Lancy EKZ;Rte. de Chancy;1213;Petit-Lancy;Ludovic Girardin;MobileZone;Ludovic.Girardin@salt.ch
110464;BR Trade & Consulting GmbH;Sonnenbergweg;3315;Kräiligen;Emir Mustafa;SPP - Salt Point Partner;Emir.Mustafa@salt.ch
110500;Art Computer SA;Place des Ormeaux;1700;Fribourg;Emir Mustafa;SPP - Salt Point Partner;Emir.Mustafa@salt.ch
110501;Art Computer SA;rue de Coutance;1201;Genève;Ludovic Girardin;SPP - Salt Point Partner;Ludovic.Girardin@salt.ch
110502;Art Computer SA;Place Centrale;1003;Lausanne;Ludovic Girardin;SPP - Salt Point Partner;Ludovic.Girardin@salt.ch
110514;NGT New Generation Telecom SA;Rue des Pâquis;1201;Genève;Ludovic Girardin;SPP Premium;Ludovic.Girardin@salt.ch
110536;Digirama AG;Bahnhofstrasse;2540;Grenchen;Ludovic Girardin;SPP - Salt Point Partner;Ludovic.Girardin@salt.ch
110567;Borrini - Multimedia;Hauptstrasse;5314;Kleindöttingen;Besnik Jakupi;SPP - Salt Point Partner;Besnik.Jakupi@salt.ch
110538;Peter Heller TV-Video-Hifi;Seestrasse;6353;Weggis;Besnik Jakupi;SPP - Salt Point Partner;Besnik.Jakupi@salt.ch
110581;Hagen-Gasser GmbH;Chirchhofplatz;8260;Stein am Rhein;Lucas Amigo;SPP - Salt Point Partner;Lucas.Amigo@salt.ch
110556;amritronic GmbH;Bahnhofstrasse;8580;Amriswil;Lucas Amigo;SPP - Salt Point Partner;Lucas.Amigo@salt.ch
110558;Tele-Locher AG;Bahnhofstrasse;8600;Dübendorf;Lucas Amigo;SPP - Salt Point Partner;Lucas.Amigo@salt.ch
110569;Jakob Rüdisüli AG;Burgerfeldstrasse;8730;Uznach;Lucas Amigo;SPP - Salt Point Partner;Lucas.Amigo@salt.ch
110571;Expert Frank GmbH;Riedstrasse;8824;Schönenberg ZH;Lucas Amigo;SPP - Salt Point Partner;Lucas.Amigo@salt.ch
110624;natelo AG Emmenbrücke;Sonnenplatz;6020;Emmenbrücke;Besnik Jakupi;SPP Premium;Besnik.Jakupi@salt.ch
110631;pq-mobile GmbH;Pestalozzistrasse;9400;Rorschach;Lucas Amigo;SPP Premium;Lucas.Amigo@salt.ch
110632;Post CH AG Dübendorf 3 Insiderpark;Ueberlandstrasse;8600;Dübendorf 3 Insiderpark;Gianni Cartolano;Schweizerische Post;Gianni.Cartolano@salt.ch
110633;Post CH AG Bern 1 PostParc;Bogenschützenstrasse;3008;Bern;Emir Mustafa;Schweizerische Post;Emir.Mustafa@salt.ch
110634;MondoMobile di Yankov;Via San Gottardo  ;6943;Vezia;Emir Mustafa;SPP - Salt Point Partner;Emir.Mustafa@salt.ch
110635;SinMédia - Macabrey;Rue des Acacias;2000;Neuchâtel;Emir Mustafa;SPP - Salt Point Partner;Emir.Mustafa@salt.ch
110693;Post CH AG Zug Laubenhof;Metallstrasse;6300;Zug;Besnik Jakupi;Schweizerische Post;Besnik.Jakupi@salt.ch
110713;TKS TELECOM Bühler Stephan;Inwilstrasse;6274;Eschenbach LU;Besnik Jakupi;SPP - Salt Point Partner;Besnik.Jakupi@salt.ch
110714;Handyapotheke Mogulan Peethamparam;Schmiedgasse;6460;Altdorf UR;Emir Mustafa;SPP - Salt Point Partner;Emir.Mustafa@salt.ch
110715;codename AG;Uraniastrasse;8001;Zürich;Lucas Amigo;SPP Premium;Lucas.Amigo@salt.ch
110725;Euro Computer Ramesch GmbH;Bahnhofstrasse;5000;Aarau;Besnik Jakupi;SPP - Salt Point Partner;Besnik.Jakupi@salt.ch
110767;LAS - Julien Chanrion - 110767;Rue du Caudray;1020;Renens;Uwe Raulf;Customer Care B2B;Uwe.Raulf@salt.ch
110771;BLS - Benjamin Mottet - 110771;Rue du Caudray;1020;Renens;Uwe Raulf;B2B DSF KAM & SME;Uwe.Raulf@salt.ch
110778;AMES Nord-Central 2;Alexander-Schoni Strasse;2503;Biel;Stephan Müller;Customer Care B2B;Julien.Chanrion@salt.ch
110787;LAS - Eneas Vargas - 110787;Alexander-Schoni Strasse;2503;Biel;Arsenios Montsenigos;Customer Care B2B;Julien.Chanrion@salt.ch
110789;AMES 18;Alexander-Schoni Strasse;2503;Biel;Stephan Müller;Customer Care B2B;Julien.Chanrion@salt.ch
110790;AMES 19;Alexander-Schoni Strasse;2503;Biel;Stephan Müller;Customer Care B2B;Julien.Chanrion@salt.ch
110806;LAS - Filomena Cariola - 110806;Hardturmstrasse;8005;Zurich;Christian Aveni;Customer Care B2B;Christian.Aveni@salt.ch
110815;SBS - Sabrina Romano - 110815;Hardturmstrasse;8005;Zurich;Christian Aveni;Customer Care B2B;Christian.Aveni@salt.ch
110816;AM - Raphael Widmer - 110816;Hardturmstrasse;8005;Zurich;Christian Aveni;B2B DSF KAM & SME;Christian.Aveni@salt.ch
110830;S-Telekommunikation by Sinisa Gazic;Freiestrasse;8610;Uster;Lucas Amigo;SPP - Salt Point Partner;Lucas.Amigo@salt.ch
110837;Jamois Felicity;Industriestrasse;4542;Luterbach;Emir Mustafa;SPP - Salt Point Partner;Emir.Mustafa@salt.ch
110866;Swiss Mobile GmbH;Bahnhofstrasse;8600;Dübendorf;Lucas Amigo;SPP Premium;Lucas.Amigo@salt.ch
110922;Mobilezone AG Luzern Bahnhof EKZ;Zentralstrasse;6002;Luzern;Besnik Jakupi;MobileZone;Besnik.Jakupi@salt.ch
110925;Uneltech Electronic AG;Im Schörli;8600;Dübendorf;Lucas Amigo;SPP - Salt Point Partner;Lucas.Amigo@salt.ch
110927;XtremPhone Sàrl;Rue de la Léchère;1630;Bulle;Emir Mustafa;SPP Premium;Emir.Mustafa@salt.ch
110932;Handyshop Swiss;Landstrasse;5430;Wettingen;Besnik Jakupi;SPP Premium;Besnik.Jakupi@salt.ch
110958;Phonext di Rizza Luigi e Gian Franco;Via Carvina;6807;Taverne;Gianni Cartolano;SPP - Salt Point Partner;Gianni.Cartolano@salt.ch
110960;AST SWISS AG;Fuchswinkelstrasse;8718;Schänis;Lucas Amigo;SPP - Salt Point Partner;Lucas.Amigo@salt.ch
110968;Colarelli Sàrl;Rue de Bâle;1201;Genève;Ludovic Girardin;SPP - Salt Point Partner;Ludovic.Girardin@salt.ch
110971;GRAU Electricité SA;Avenue de l'Industrie;1870;Monthey;Ludovic Girardin;SPP - Salt Point Partner;Ludovic.Girardin@salt.ch
110981;XperPhone Sàrl;Avenue Général-Guisan;1800;Vevey;Ludovic Girardin;SPP - Salt Point Partner;Ludovic.Girardin@salt.ch
111005;iHelper GmbH;Bernstrasse;4852;Rothrist;Besnik Jakupi;SPP - Salt Point Partner;Besnik.Jakupi@salt.ch
111013;Data Quest AG - Corporate Business Unit;Seidenstrasse;8304;Wallisellen;Lucas Amigo;SPP - Salt Point Partner;Lucas.Amigo@salt.ch
111017;Mobile Einsiedeln ag;Hauptstrasse;8840;Einsiedeln;Lucas Amigo;SPP Premium;Lucas.Amigo@salt.ch
111021;Speed Reparation Margjoni;Grand'Rue;2108;Couvet;Ludovic Girardin;SPP - Salt Point Partner;Ludovic.Girardin@salt.ch
111074;Post CH AG Zürich 25 Urania;Uraniastrasse;8001;Zürich;Gianni Cartolano;Schweizerische Post;Gianni.Cartolano@salt.ch
111095;Xinnomix GmbH;Seewydenstrasse;9403;Goldach;Lucas Amigo;SPP - Salt Point Partner;Lucas.Amigo@salt.ch
111108;iT-SPOT GmbH;Zürcherstrasse;8952;Schlieren;Lucas Amigo;SPP - Salt Point Partner;Lucas.Amigo@salt.ch
111127;mobile4business AG;Tempelstrasse;3608;Thun;Emir Mustafa;SPP - Salt Point Partner;Emir.Mustafa@salt.ch
111275;WALFRA Computer GmbH;Haupstrasse;6280;Hochdorf;Besnik Jakupi;SPP - Salt Point Partner;Besnik.Jakupi@salt.ch
111294;éco-phone, Solav Omar;Rue Centrale;1880;Bex;Ludovic Girardin;SPP - Salt Point Partner;Ludovic.Girardin@salt.ch
111296;natelo AG Muri;Aarauerstrasse;5630;Muri;Besnik Jakupi;SPP Premium;Besnik.Jakupi@salt.ch
111314;VoipTel Service Sagl;Via San Salvatore;6900;Paradiso;Emir Mustafa;SPP - Salt Point Partner;Emir.Mustafa@salt.ch
111316;AD Tech Sagl;Via Pioda;6900;Lugano;Gianni Cartolano;SPP Premium;Gianni.Cartolano@salt.ch
111320;Gega Phone GmbH;Hauptstrasse;5316;Leuggern;Besnik Jakupi;SPP - Salt Point Partner;Besnik.Jakupi@salt.ch
111324;Hellocom AG;Trichtenhauser Strasse;8125;Zollikerberg;Lucas Amigo;SPP - Salt Point Partner;Lucas.Amigo@salt.ch
111328;Chexter GmbH;Schlosswiese;8547;Gachnang;Lucas Amigo;SPP Premium;Lucas.Amigo@salt.ch
111338;Win-Lux GmbH;Säge;7233;Jenaz;Lucas Amigo;SPP - Salt Point Partner;Lucas.Amigo@salt.ch
111340;Fair-Repair Malo;Steinhölzlistrasse;4563;Gerlafingen;Ludovic Girardin;SPP - Salt Point Partner;Ludovic.Girardin@salt.ch
111341;DÄLLENBACH Kommunikations- und Veranstaltungstechnik GmbH;alter Postweg;8475;Ossingen;Lucas Amigo;SPP - Salt Point Partner;Lucas.Amigo@salt.ch
111350;Maurer AG Multimedia Sound Vision;Holzikerstrasse;5040;Schöftland;Besnik Jakupi;SPP - Salt Point Partner;Besnik.Jakupi@salt.ch
111351;PhoneStore Communications GmbH Baar;Bahnhofstrasse;6340;Baar;Lucas Amigo;SPP Premium;Lucas.Amigo@salt.ch
114754;Clar IT Service GmbH;Rathausgasse;4800;Zofingen;Besnik Jakupi;SPP - Salt Point Partner;Besnik.Jakupi@salt.ch
114762;Data Quest AG;Mall of Switzerland, Ebisquare-Strasse;6030;Ebikon;Besnik Jakupi;SPP - Salt Point Partner;Besnik.Jakupi@salt.ch
114772;T.A Mobile Stambolija;Gerliswilstrasse;6020;Emmenbrücke;Besnik Jakupi;SPP - Salt Point Partner;Besnik.Jakupi@salt.ch
114781;Valora Schweiz AG;Hofackerstrasse;4132;Muttenz;Besnik Jakupi;Valora;Besnik.Jakupi@salt.ch
114783;Giuseppe Vaccarella z.Hd. DDM Group;Via Rivercegno;6616;Losone;Emir Mustafa;SPP - Salt Point Partner;Emir.Mustafa@salt.ch
114784;TCL Telecom Center Lugano Sagl;Via Gismonda;6850;Mendrisio;Gianni Cartolano;SPP Premium;Gianni.Cartolano@salt.ch
114785;Globali Mobile GmbH;Webergasse;4058;Basel;Emir Mustafa;SPP - Salt Point Partner;Emir.Mustafa@salt.ch
114787;Mobilezone AG Zürich Shopville Hauptbahnhof EKZ;Bahnhofpassage;8001;Zürich;Gianni Cartolano;MobileZone;Gianni.Cartolano@salt.ch
114788;Mobilezone AG Ebikon Mall of Switzerland EKZ;Ebisquare-Strasse;6030;Ebikon;Besnik Jakupi;MobileZone;Besnik.Jakupi@salt.ch
114789;Phone Style di Luisito Capra;Corso Bello;6850;Mendrisio;Gianni Cartolano;SPP Premium;Gianni.Cartolano@salt.ch
114793;Mobilezone AG Centre Manor Monthey;Avenue de lEurope;1870;Monthey;Ludovic Girardin;MobileZone;Ludovic.Girardin@salt.ch
114797;Handy Shop Emmen GmbH;Meiliplatz;6032;Emmen;Besnik Jakupi;SPP - Salt Point Partner;Besnik.Jakupi@salt.ch
114798;natelo AG Küssnacht;Bahnhofstrasse;6403;Küssnacht am Rigi;Besnik Jakupi;SPP Premium;Besnik.Jakupi@salt.ch
114800;PhoneStore Communications GmbH Einsiedeln;Migros Center, Eisenbahnstrasse;8840;Einsiedeln;Lucas Amigo;SPP Premium;Lucas.Amigo@salt.ch
114805;Mobilezone AG Risch-Rotkreuz;Suurstoffi;6343;Rotkreuz;Besnik Jakupi;MobileZone;Besnik.Jakupi@salt.ch
114823;Arena Tech AG;Stradun;7550;Scuol;Lucas Amigo;SPP - Salt Point Partner;Lucas.Amigo@salt.ch
114824;alao AG;Kreuzstrasse;8008;Zürich;Emir Mustafa;SPP Premium;Emir.Mustafa@salt.ch
114825;Roner & Partner Scrl;Davo Röven;7530;Zernez;Lucas Amigo;SPP - Salt Point Partner;Lucas.Amigo@salt.ch
10610;Direct Sales Internal;Rue du Caudray;1020;Renens;Lars Keller;Direct Sales;Lars.Keller@salt.ch
10616;Direct Sales Internal;Rue du Caudray;1020;Renens;Lars Keller;Direct Sales;Lars.Keller@salt.ch
10617;Direct Sales Internal;Rue du Caudray;1020;Renens;Lars Keller;Direct Sales;Lars.Keller@salt.ch
10618;Direct Sales Internal;Rue du Caudray;1020;Renens;Lars Keller;Direct Sales;Lars.Keller@salt.ch
10619;Direct Sales Internal;Rue du Caudray;1020;Renens;Lars Keller;Direct Sales;Lars.Keller@salt.ch
10620;Direct Sales External;Rue du Caudray;1020;Renens;Lars Keller;Direct Sales;Lars.Keller@salt.ch
10621;Direct Sales External;Rue du Caudray;1020;Renens;Lars Keller;Direct Sales;Lars.Keller@salt.ch
10622;Direct Sales External;Rue du Caudray;1020;Renens;Lars Keller;Direct Sales;Lars.Keller@salt.ch
10623;Direct Sales External;Rue du Caudray;1020;Renens;Lars Keller;Direct Sales;Lars.Keller@salt.ch
10624;Direct Sales External;Rue du Caudray;1020;Renens;Lars Keller;Direct Sales;Lars.Keller@salt.ch
10625;Direct Sales External;Rue du Caudray;1020;Renens;Lars Keller;Direct Sales;Lars.Keller@salt.ch
10626;Direct Sales External;Rue du Caudray;1020;Renens;Lars Keller;Direct Sales;Lars.Keller@salt.ch
10627;Direct Sales External;Rue du Caudray;1020;Renens;Lars Keller;Direct Sales;Lars.Keller@salt.ch
10628;Direct Sales External;Rue du Caudray;1020;Renens;Lars Keller;Direct Sales;Lars.Keller@salt.ch
10629;Direct Sales External;Rue du Caudray;1020;Renens;Lars Keller;Direct Sales;Lars.Keller@salt.ch
114834;BLS - Jonathan Gaillard - 114834;Hardturmstrasse;8005;Zürich;Christian Aveni;B2B DSF KAM & SME;Christian.Aveni@salt.ch
114835;AM - Sylvain Mento - 114835;Hardturmstrasse;8005;Zürich;Christian Aveni;B2B DSF KAM & SME;Christian.Aveni@salt.ch
114836;AM - Patrik Dettling - 114836;Hardturmstrasse;8005;Zürich;Christian Aveni;B2B DSF KAM & SME;Christian.Aveni@salt.ch
114837;AM - Ismail Yücel - 114837;Hardturmstrasse;8005;Zürich;Christian Aveni;B2B DSF KAM & SME;Christian.Aveni@salt.ch
114839;AM - Rodolphe Adam - 114839;Hardturmstrasse;8005;Zürich;Christian Aveni;B2B DSF KAM & SME;Christian.Aveni@salt.ch
114840;New B2B DSF;Hardturmstrasse;8005;Zürich;Christian Aveni;B2B DSF KAM & SME;Christian.Aveni@salt.ch
114841;New B2B DSF;Hardturmstrasse;8005;Zürich;Christian Aveni;B2B DSF KAM & SME;Christian.Aveni@salt.ch
114842;New B2B DSF;Hardturmstrasse;8005;Zürich;Christian Aveni;B2B DSF KAM & SME;Christian.Aveni@salt.ch
114843;Mobile World ZH GmbH;Schaffhauserstrasse;8052;Zürich;Lucas Amigo;SPP Premium;Lucas.Amigo@salt.ch
114845;Mobilezone AG (BEA);Suurstoffi;6343;Rotkreuz;Emir Mustafa;MobileZone;Emir.Mustafa@salt.ch
114847;Moovie Mura Swiss Technology;Via dei Faggi;6912;Pazzallo;Gianni Cartolano;SPP Premium;Gianni.Cartolano@salt.ch
114848;Revendo AG;Güterstrasse;4053;Basel;Emir Mustafa;SPP Premium;Emir.Mustafa@salt.ch
114854;4G Consulting & Communications SA - 114854;Via Linoleum;6512;Giubiasco;Bektas Atilgan;B2B Partner for SME;martin.keller2@salt.ch
114855;MULTITEL SA;Route de Denges;1027;Lonay;Ludovic Girardin;SPP Premium;Ludovic.Girardin@salt.ch
114856;Multitel Genève Sàrl;Boulevard Carl-Vogt;1205;Genève;Ludovic Girardin;SPP Premium;Ludovic.Girardin@salt.ch
114857;Multitel Rolle Sàrl;Grand-Rue;1180;Rolle;Ludovic Girardin;SPP Premium;Ludovic.Girardin@salt.ch
114858;Multitel Morges;Grand-Rue;1110;Morges;Ludovic Girardin;SPP Premium;Ludovic.Girardin@salt.ch
114859;Privatel SA Lonay;Route de Denges;1027;Lonay;Ludovic Girardin;SPP Premium;Ludovic.Girardin@salt.ch
114860;Privatel SA Renens;Rue de la Mèbre;1020;Renens;Ludovic Girardin;SPP Premium;Ludovic.Girardin@salt.ch
114861;MULTITEL SA;Route de Denges;1027;Lonay;Bektas Atilgan;B2B Partner for SME;martin.keller2@salt.ch
114862;Multitel Genève Sàrl;Boulevard Carl-Vogt;1205;Genève;Bektas Atilgan;B2B Partner for SME;martin.keller2@salt.ch
114863;Multitel Rolle Sàrl;Grand-Rue;1180;Rolle;Bektas Atilgan;B2B Partner for SME;martin.keller2@salt.ch
114864;Multitel Morges;Grand-Rue;1110;Morges;Bektas Atilgan;B2B Partner for SME;martin.keller2@salt.ch
114865;Privatel SA Lonay;Route de Denges;1027;Lonay;Bektas Atilgan;B2B Partner for SME;martin.keller2@salt.ch
114866;Privatel SA Renens;Rue de la Mèbre;1020;Renens;Bektas Atilgan;B2B Partner for SME;martin.keller2@salt.ch
114868;Lidl Schweiz DL AG;Dunantstrasse;8570;Weinfelden;Martin Keller;Lidl;martin.keller2@salt.ch
114872;Finance Assurances Solutions Sàrl;Chemin de la Gravière;1225;Chêne-Bourg;Ludovic Girardin;SPP Premium;Ludovic.Girardin@salt.ch
114873;Vitanovacom GmbH;Grafenaustrasse;6300;Zug;Bektas Atilgan;B2B Partner for SME;martin.keller2@salt.ch
114880;CableIT J. Tester;Zwiedenstrasse;4435;Niederdorf;Emir Mustafa;SPP - Salt Point Partner;Emir.Mustafa@salt.ch
114881;Handy & Tablet Service Piskin;Bahnhofstrasse;6423;Seewen SZ;Gianni Cartolano;SPP - Salt Point Partner;Gianni.Cartolano@salt.ch
114882;PHONE GARAGE DI MIRKO CONCONI;Via Cantonale;6805;Mezzovico;Gianni Cartolano;SPP - Salt Point Partner;Gianni.Cartolano@salt.ch
114883;my connect GmbH - 114883;Zürcherstrasse;8620;Wetzikon;Bektas Atilgan;B2B Partner for SME;martin.keller2@salt.ch
114888;Schaefer AG - 114888;Limmatstrasse;8005;Zürich;Bektas Atilgan;B2B Partner for SME;martin.keller2@salt.ch
114890;SAVOY SA;Chemin de la Marbrerie;1227;Carouge;Ludovic Girardin;SPP Premium;Ludovic.Girardin@salt.ch
114899;DG-Spot GmbH;Neue Fossertstrasse;8952;Schlieren;Gianni Cartolano;SPP - Salt Point Partner;Gianni.Cartolano@salt.ch
114903;Lidl Telesales (TPLDE);Rue du Caudray;1020;Renens;Martin Keller;Lidl;martin.keller2@salt.ch
114904;Lidl Telesales (TPLFR);Rue du Caudray;1020;Renens;Martin Keller;Lidl;martin.keller2@salt.ch
114917;tip top natel Sagl;Via Valle Maggia;6600;Locarno;Gianni Cartolano;SPP Premium;Gianni.Cartolano@salt.ch
114927;GRAU Electricité SA;Rue Colomb;1860;Aigle;Ludovic Girardin;SPP - Salt Point Partner;Ludovic.Girardin@salt.ch
114928;FTH Services SA;Route de Neuchâtel;1032;Romanel-sur-Lausanne;Ludovic Girardin;SPP Premium;Ludovic.Girardin@salt.ch
114930;Missiliez SA;Avenue de la Plantaud;1870;Monthey;Bektas Atilgan;B2B Partner for SME;martin.keller2@salt.ch
114935;AD Tech Sagl - 114935;Via Pioda;6900;Lugano;Bektas Atilgan;B2B Partner for SME;martin.keller2@salt.ch
114936;Centre Natel Emery Sàrl - 114936;Rue de la Bourgeoisie;1950;Sion;Bektas Atilgan;B2B Partner for SME;martin.keller2@salt.ch
114937;Mobilezone AG Wattwil;Bahnhofstrasse;9630;Wattwil;Lucas Amigo;MobileZone;Lucas.Amigo@salt.ch
114938;Tele-Consulting by Arzu Girti - 114938;Dorfstrasse;8424;Embrach;Bektas Atilgan;B2B Partner for SME;martin.keller2@salt.ch
114939;Ing. Carlo Bosia SA - 114939;Via Beltramina;6900;Lugano;Bektas Atilgan;B2B Partner for SME;martin.keller2@salt.ch
114942;Mobilezone AG (Zuger Messe);Suurstoffi;6343;Rotkreuz;Besnik Jakupi;MobileZone;Besnik.Jakupi@salt.ch
114944;Pepe-Neuhaus Sàrl - 114944;Route du Crochet;1762;Givisiez;Bektas Atilgan;B2B Partner for SME;martin.keller2@salt.ch
114947;FMT Swiss Marketing Sàrl;Rue Eugène-Marziano;1227;Les Acacias;Ludovic Girardin;SPP Premium;Ludovic.Girardin@salt.ch
114954;AMS All Mobile Service AG;Technikumstrasse;8400;Winterthur;Bektas Atilgan;B2B Partner for SME;martin.keller2@salt.ch
114955;Mobilezone AG Zürich Shopville 2;Halle Löwenstrasse;8001;Zürich;Gianni Cartolano;MobileZone;Gianni.Cartolano@salt.ch
114966;Technoware Sàrl - 114966;Place de la Gare;2900;Porrentruy;Bektas Atilgan;B2B Partner for SME;martin.keller2@salt.ch
114968;Magicom SA - 114968;Rue Paul-Bouchet;1201;Genève;Bektas Atilgan;B2B Partner for SME;martin.keller2@salt.ch
114969;deinabo Online;Sonnenplatz;6020;Emmenbrücke;Besnik Jakupi;SPP Premium;Besnik.Jakupi@salt.ch
114972;SPS Swiss Plus Solution SA - 114972;Via al Forte;6900;Lugano;Bektas Atilgan;B2B Partner for SME;martin.keller2@salt.ch
114975;natelo.ch Online;Sonnenplatz;6020;Emmenbrücke;Besnik Jakupi;SPP Premium;Besnik.Jakupi@salt.ch
114976;Auratel AG - 114976;Steinhaldenstrasse;8954;Geroldswil;Bektas Atilgan;B2B Partner for SME;martin.keller2@salt.ch
114980;Crusader Sagl;Via Mondonico;6982;Agno;Gianni Cartolano;SPP Premium;Gianni.Cartolano@salt.ch
114985;Mobilezone SA Genève Rive;Rue de Rive;1204;Genève;Ludovic Girardin;MobileZone;Ludovic.Girardin@salt.ch
114992;Xenis AG - 114992;Alte Landstrasse;8700;Küsnacht;Bektas Atilgan;B2B Partner for SME;martin.keller2@salt.ch
115010;MULTITEL SA *390*;Route de Denges;1027;Lonay;Bektas Atilgan;B2B Partner for Large;martin.keller2@salt.ch
115011;Multitel Genève Sàrl *390*;Boulevard Carl-Vogt;1205;Genève;Bektas Atilgan;B2B Partner for Large;martin.keller2@salt.ch
115012;Multitel Rolle Sàrl *390*;Grand-Rue;1180;Rolle;Bektas Atilgan;B2B Partner for Large;martin.keller2@salt.ch
115013;Multitel Morges *390*;Grand-Rue;1110;Morges;Bektas Atilgan;B2B Partner for Large;martin.keller2@salt.ch
115014;Privatel SA Lonay *390*;Route de Denges;1027;Lonay;Bektas Atilgan;B2B Partner for Large;martin.keller2@salt.ch
115015;Privatel SA Renens *390*;Rue de la Mèbre;1020;Renens;Bektas Atilgan;B2B Partner for Large;martin.keller2@salt.ch
115016;4G Consulting & Communications SA *390* - 115016;Via Linoleum;6512;Giubiasco;Bektas Atilgan;B2B Partner for Large;martin.keller2@salt.ch
115017;Vitanovacom GmbH *390*;Grafenaustrasse;6300;Zug;Bektas Atilgan;B2B Partner for Large;martin.keller2@salt.ch
115018;my connect GmbH *390* - 115018;Zürcherstrasse;8620;Wetzikon;Bektas Atilgan;B2B Partner for Large;martin.keller2@salt.ch
115019;Schaefer AG *390* - 115019;Limmatstrasse;8005;Zürich;Bektas Atilgan;B2B Partner for Large;martin.keller2@salt.ch
115028;AMS All Mobile Service AG *390*;Technikumstrasse 59;8400;Winterthur;Bektas Atilgan;B2B Partner for Large;martin.keller2@salt.ch
115032;Auratel AG *390* - 115032;Steinhaldenstrasse;8954;Geroldswil;Bektas Atilgan;B2B Partner for Large;martin.keller2@salt.ch
115034;mobilezone ag *390* - 115034;Suurstoffi;6343;Rotkreuz;Bektas Atilgan;B2B Partner for Large;martin.keller2@salt.ch
115035;Mobilezone AG Wilderswil;Aegertiweg;3812;Wilderswil;Emir Mustafa;MobileZone;Emir.Mustafa@salt.ch
115041;Didico AG;General-Wille-Strasse;8706;Meilen;Lucas Amigo;SPP Premium;Lucas.Amigo@salt.ch
115048;Art Computer SA;Via Cattedrale;6900;Lugano;Gianni Cartolano;SPP - Salt Point Partner;Gianni.Cartolano@salt.ch
115050;PhoneStore Communications GmbH Schlieren;Güterstrasse;8952;Schlieren;Lucas Amigo;SPP Premium;Lucas.Amigo@salt.ch
10401;Trade Fair East;Hardturmstrasse;8005;Zürich;Lars Keller;Direct Sales;Lars.Keller@salt.ch
10402;Trade Fair Central;Hardturmstrasse;8005;Zürich;Lars Keller;Direct Sales;Lars.Keller@salt.ch
10403;Trade Fair West;Hardturmstrasse;8005;Zürich;Lars Keller;Direct Sales;Lars.Keller@salt.ch
115080;Allo Group Switzerland Sàrl;Avenue Sainte-Cécile;1217;Meyrin;Ludovic Girardin;SPP Premium;Ludovic.Girardin@salt.ch
115081;Perlini Mobile;Landstrasse;5275;Etzgen;Bektas Atilgan;B2B Partner for SME;martin.keller2@salt.ch
115086;Padcom AG;Hubstrasse;9500;Wil SG;Bektas Atilgan;B2B Partner for SME;martin.keller2@salt.ch
115087;MSS Consulting Marcello Stellato;Brunnenmattstrasse;8953;Dietikon;Bektas Atilgan;B2B Partner for SME;martin.keller2@salt.ch
115088;Mobilezone AG Inhouse Sales;Suurstoffi;6343;Rotkreuz;Besnik Jakupi;MobileZone;Besnik.Jakupi@salt.ch
115089;EWA Energie Wasser Aarberg AG;Stadtplatz;3270;Aarberg;Emir Mustafa;SPP Premium;Emir.Mustafa@salt.ch
115091;SKAM  Anthony Bollhalder  115091;Hardturmstrasse;8005;Zürich;Patrick Bollhalder;B2B DSF KAM & SME;Julien.Chanrion@salt.ch
115093;SKAM  Bahadir Candan  115093;Hardturmstrasse;8005;Zürich;Patrick Bollhalder;B2B DSF KAM & SME;Julien.Chanrion@salt.ch
115094;SKAM  Massimo Insalata  115094;Hardturmstrasse;8005;Zürich;Patrick Bollhalder;B2B DSF KAM & SME;Julien.Chanrion@salt.ch
115095;PAM  Fikret Aydin  115095;Hardturmstrasse;8005;Zürich;Christian Aveni;B2B DSF KAM & SME;Christian.Aveni@salt.ch
115096;KAM  Vladimir Petkovic  115096;Hardturmstrasse;8005;Zürich;Patrick Bollhalder;B2B DSF KAM & SME;Julien.Chanrion@salt.ch
115097;St.Galler Stadtwerke Telecom-Shop;Vadianstrasse;9001;St. Gallen;Lucas Amigo;SPP Premium;Lucas.Amigo@salt.ch
115106;SKAM  Alexander Fulge  115106;Hardturmstrasse;8005;Zürich;Patrick Bollhalder;B2B DSF KAM & SME;Julien.Chanrion@salt.ch
115107;LAS - Sayat Capkan - 115107;Alexander-Schöni-Strasse;2503;Biel;Julien Chanrion;Customer Care B2B;Julien.Chanrion@salt.ch
115110;Mobilezone SA Lugano Peri;Via Peri;6900;Lugano;Gianni Cartolano;MobileZone;Gianni.Cartolano@salt.ch
115131;Mobilezone AG Bern Bahnhof;Bahnhofplatz;3011;Bern;Emir Mustafa;MobileZone;Emir.Mustafa@salt.ch
115132;Multitel SA;Löwenstrasse;8001;Zürich;Ludovic Girardin;SPP Premium;Ludovic.Girardin@salt.ch
115134;Multitel SA;Löwenstrasse;8001;Zürich;Bektas Atilgan;B2B Partner for SME;martin.keller2@salt.ch
115136;AM  Vigan Bajrami  115136;Hardturmstrasse;8005;Zürich;Arsenios Montsenigos;B2B DSF KAM & SME;Julien.Chanrion@salt.ch
115137;Swiss Mobile GmbH;Bahnhofstrasse;8600;Dübendorf;Bektas Atilgan;B2B Partner for SME;martin.keller2@salt.ch
115153;Fixzone GmbH;Langstrasse;8005;Zürich;Besnik Jakupi;SPP Premium;Besnik.Jakupi@salt.ch
115154;SBS - Philippe Ayoun - 115154;Hardturmstrasse;8005;Zurich;Julien Chanrion;Customer Care B2B;Julien.Chanrion@salt.ch
115156;Swissphonie - Swissimmob, Jacques Slama;Route de Saint-Maurice;1814;La Tour-de-Peilz;Ludovic Girardin;SPP - Salt Point Partner;Ludovic.Girardin@salt.ch
115164;Mobilezone AG Aarau 2;Bahnhofstrasse;5000;Aarau;Besnik Jakupi;MobileZone;Besnik.Jakupi@salt.ch
115165;natelo AG Sursee;Bahnhofstrasse;6210;Sursee;Besnik Jakupi;SPP Premium;Besnik.Jakupi@salt.ch
115175;Post CH AG Bern 16 Burgernziel;Muristrasse;3006;Bern;Emir Mustafa;Schweizerische Post;Emir.Mustafa@salt.ch
115179;Mobilezone AG Glattzentrum 2;EKZ Glatt / Mittlere Verkaufsebene;8301;Glattzentrum;Gianni Cartolano;MobileZone;Gianni.Cartolano@salt.ch
115180;Mediacom Durmus AG;Bernstrasse;8953;Dietikon;Bektas Atilgan;B2B Partner for SME;martin.keller2@salt.ch
115181;it2day AG;Industriestrasse;2543;Lengnau BE;Bektas Atilgan;B2B Partner for SME;martin.keller2@salt.ch
115182;SMARTMOBILE GmbH;Altstetterstrasse;8048;Zürich;Gianni Cartolano;SPP - Salt Point Partner;Gianni.Cartolano@salt.ch
115183;Telesales LIDL (WH);Richtistrasse;8304;Wallisellen;Martin Keller;Lidl;martin.keller2@salt.ch
115184;Telesales LIDL (GA);Neumarkt;9000;St. Gallen;Martin Keller;Lidl;martin.keller2@salt.ch
115185;Telesales LIDL (TPTH);Rue du Caudray;1020;Renens;Martin Keller;Lidl;martin.keller2@salt.ch
115187;Fixzone GmbH;Birmensdorferstrasse;8003;Zürich;Besnik Jakupi;SPP Premium;Besnik.Jakupi@salt.ch
115188;Fixzone GmbH;Baslerstrasse;6003;Luzern;Besnik Jakupi;SPP Premium;Besnik.Jakupi@salt.ch
115191;Lidl Salt Biel Winback - Level 1;Alexander-Schöni-Strasse;2503;Biel;Martin Keller;Lidl;martin.keller2@salt.ch
115192;Lidl Salt Biel Winback - Level 2;Alexander-Schöni-Strasse;2503;Biel;Martin Keller;Lidl;martin.keller2@salt.ch
115193;Lidl Customer Loyalty inbound;Rue du Caudray;1020;Renens;Martin Keller;Lidl;martin.keller2@salt.ch
115194;Lidl Customer Loyalty backoffice;Rue du Caudray;1020;Renens;Martin Keller;Lidl;martin.keller2@salt.ch
115195;Lidl Customer Loyalty outbound;Rue du Caudray;1020;Renens;Martin Keller;Lidl;martin.keller2@salt.ch
115198;Mediacom Durmus AG;Bernstrasse;8953;Dietikon;Bektas Atilgan;B2B Partner for Large;martin.keller2@salt.ch
115199;it2day AG;Industriestrasse;2543;Lengnau BE;Bektas Atilgan;B2B Partner for Large;martin.keller2@salt.ch
115200;REDPHONE SARL;Rue de Chantepoulet;1201;Genève;Ludovic Girardin;SPP Premium;Ludovic.Girardin@salt.ch
115206;AM - Henri Lababsi - 115206;Rue du Caudray;1020;Renens;Jonathan Gaillard;B2B DSF KAM & SME;Jonathan.Gaillard@salt.ch
115214;Privatel CTS;Route de Denges;1027;Lonay;Ludovic Girardin;SPP Premium;Ludovic.Girardin@salt.ch
115215;Privatel SA / ClienTel Sàrl;Route de Denges;1027;Lonay;Bektas Atilgan;B2B Partner for SME;martin.keller2@salt.ch
115218;AM - Muhamed Shaqiri - 115218;Hardturmstrasse;8005;Zürich;Muhamed Shaqiri;B2B DSF KAM & SME;Julien.Chanrion@salt.ch
115219;AM - Urs Reuss - 115219;Hardturmstrasse;8005;Zürich;Urs Reuss;B2B DSF KAM & SME;Julien.Chanrion@salt.ch
115228;AM - Anis Farhat - 115228;Hardturmstrasse;8005;Zürich;Anis Farhat;B2B DSF KAM & SME;Anis.Farhat@salt.ch
115229;AM - Hannes Schwarzer - 115229;Hardturmstrasse;8005;Zürich;Hannes Schwarzer;B2B DSF KAM & SME;Julien.Chanrion@salt.ch
115243;Meta Communications GmbH;Müligässli;8598;Bottighofen;Lucas Amigo;SPP Premium;Lucas.Amigo@salt.ch
115254;SBS - Ferenc Lipcsei - 115254;Hardturmstrasse;8005;Zürich;Julien Chanrion;Customer Care B2B;Julien.Chanrion@salt.ch
115255;Stadtantennen AG;Bachweid;6340;Baar;Gianni Cartolano;SPP Premium;Gianni.Cartolano@salt.ch
115256;USSI Handels GmbH;Baslerstrasse;4600;Olten;Besnik Jakupi;SPP Premium;Besnik.Jakupi@salt.ch
115264;TecMarkt GmbH;Neuengass-Passage;3011;Bern;Emir Mustafa;SPP Premium;Emir.Mustafa@salt.ch
115265;KAM  Nikolic Vjekoslav  115265;Hardturmstrasse;8005;Zürich;Patrick Bollhalder;B2B DSF KAM & SME;Julien.Chanrion@salt.ch
115266;Multitel FNAC Rive;Rue de Rive;1204;Genève;Ludovic Girardin;SPP Premium;Ludovic.Girardin@salt.ch
115282;pq-mobile GmbH;Dornierstrasse;9423;Altenrhein;Fikret Aydin;B2B Partner for SME;Fikret.Aydin@salt.ch
115283;AM - Alexandre Borgeaud - 115283;Rue du Caudray;1020;Renens;Jonathan Gaillard;B2B DSF KAM & SME;Jonathan.Gaillard@salt.ch
115285;Eldoni GmbH;Greifengasse;4058;Basel;Besnik Jakupi;SPP Premium;Besnik.Jakupi@salt.ch
115230;Lidl Eshop;Rue du Caudray;1020;Renens;Martin Keller;Lidl;martin.keller2@salt.ch
115289;natelo AG;Sonnenplatz;6020;Emmenbrücke;Fikret Aydin;B2B Partner for SME;Fikret.Aydin@salt.ch
115290;natelo AG *390*;Sonnenplatz;6020;Emmenbrücke;Fikret Aydin;B2B Partner for Large;Fikret.Aydin@salt.ch
115296;salespromo.ch GmbH;Neustadtstrasse;6003;Luzern;Emir Mustafa;SPP Premium;Emir.Mustafa@salt.ch
115297;Reca Mobile Sevgi;Elsässerstrasse;4056;Basel;Emir Mustafa;SPP Premium;Emir.Mustafa@salt.ch
115298;Multitel SA;Route de Denges;1027;Lonay;Ludovic Girardin;SPP - Salt Point Partner;Ludovic.Girardin@salt.ch
115358;Mobilecom-Store GmbH;Kirchstrasse;2540;Grenchen;Emir Mustafa;SPP Premium;Emir.Mustafa@salt.ch
115367;Devcom Agency Sàrl;Rue de l'Ale;1003;Lausanne;Ludovic Girardin;SPP Premium;Ludovic.Girardin@salt.ch
115369;Computer Support Center Ebrahimi;Bahnhofstrasse;8200;Schaffhausen;Besnik Jakupi;SPP Premium;Besnik.Jakupi@salt.ch
115372;Mobile POS LIDL Winterthur;In der Au;8400;Winterthur;Martin Keller;Lidl;martin.keller2@salt.ch
115388;Multitel FNAC Genève Balexert;Av. Louis Casai;1211;Genève;Ludovic Girardin;SPP Premium;Ludovic.Girardin@salt.ch
115389;Multitel FNAC Lausanne;Rue de Genève;1002;Lausanne;Ludovic Girardin;SPP Premium;Ludovic.Girardin@salt.ch
115390;Multitel FNAC Fribourg;Av. de la Gare;1700;Fribourg;Ludovic Girardin;SPP Premium;Ludovic.Girardin@salt.ch
115391;Multitel FNAC Neuchatel;Rue de la Pierre-à-Mazel;2000;Neuchatel;Ludovic Girardin;SPP Premium;Ludovic.Girardin@salt.ch
115395;Alptel GmbH;Kasernenstrasse;9100;Herisau;Fikret Aydin;B2B Partner for SME;Fikret.Aydin@salt.ch
115396;Alptel GmbH *390*;Kasernenstrasse;9100;Herisau;Fikret Aydin;B2B Partner for Large;Fikret.Aydin@salt.ch
115398;AM - Huong Huynh - 115398;Hardturmstrasse;8005;Zürich;Patrick Bollhalder;B2B DSF KAM & SME;Julien.Chanrion@salt.ch
115399;AM - Sareh Shagaldians - 115399;Hardturmstrasse;8005;Zürich;Patrick Bollhalder;B2B DSF KAM & SME;Julien.Chanrion@salt.ch
115404;Mobilezone AG Würenlos;Shopping-Raststätte Würenlos;5436;Würenlos;Besnik Jakupi;MobileZone;Besnik.Jakupi@salt.ch
115405;Gemeindebetriebe Muri b. Bern, Telecom;Turbenweg;3073;Gümligen;Emir Mustafa;SPP Premium;Emir.Mustafa@salt.ch
115411;Mobile POS LIDL Courgevaux;Fin de Mossard;1796;Courgevaux;Martin Keller;Lidl;martin.keller2@salt.ch
115413;Swiss4net Holding AG;Untermüli;6302;Zug;Besnik Jakupi;SPP Premium;Besnik.Jakupi@salt.ch
115416;Mobile POS with SST staff;Hardturmstrasse;8005;Zürich;Matthias Feierabend;Direct Sales;matthias.feierabend@salt.ch
115422;Mobile POS LIDL Rothrist;Bernstrasse;4852;Rothrist;Martin Keller;Lidl;martin.keller2@salt.ch
115425;Maurer Radio Television AG;Bahnhofstrasse;4450;Sissach;Emir Mustafa;SPP Premium;Emir.Mustafa@salt.ch
115434;LAS - Katarina Guida - 115434;Alexander-Schöni-Strasse;2503;Biel;Julien Chanrion;Customer Care B2B;Julien.Chanrion@salt.ch
115436;Particule Concept Sàrl;Avenue de la Gare;1870;Monthey;Ludovic Girardin;SPP Premium;Ludovic.Girardin@salt.ch
115440;SBS - Marko Alobik - 115440;Alexander-Schöni-Strasse;2503;Biel;Philippe Ayoun;Customer Care B2B;Philippe.Ayoun@salt.ch
115441;SBS - Stefano Maggiore - 115441;Alexander-Schöni-Strasse;2503;Biel;Philippe Ayoun;Customer Care B2B;Philippe.Ayoun@salt.ch
115445;AM - Eneas Vargas - 115445;Alexander-Schöni-Strasse;2503;Biel;Eneas Vargas;B2B DSF KAM & SME;Eneas.Vargas@salt.ch
115452;Mobile Corner GmbH;Oberfeldstrasse;4665;Oftringen;Besnik Jakupi;SPP Premium;Besnik.Jakupi@salt.ch
115453;Mobile POS LIDL Wohlen;Bullenbergstr.;5610;Wohlen;Martin Keller;Lidl;martin.keller2@salt.ch
115454;Mobile POS LIDL Yverdon-les-Bains;Route de Lausanne;1400;Yverdon-les-Bains;Martin Keller;Lidl;martin.keller2@salt.ch
115462;Multitel Fnac Genève Cornavin;Manor Shop, Rue de Cornavin;1201;Genève;Ludovic Girardin;SPP Premium;Ludovic.Girardin@salt.ch
115463;Multitel Fnac Chavanne;Manor Shop, Chem. Industriel;1279;Chavannes-de-Bogis;Ludovic Girardin;SPP Premium;Ludovic.Girardin@salt.ch
115464;Multitel Fnac Vevey;Centre Manor Vevey, avenue du Général-Guisan;1800;Vevey;Ludovic Girardin;SPP Premium;Ludovic.Girardin@salt.ch
115468;Fibre Solution Sàrl;Rue de Chantepoulet;1201;Genève;Ludovic Girardin;SPP Premium;Ludovic.Girardin@salt.ch
115472;SBS - Fabian Borer - 115472;Alexander-Schöni-Strasse;2503;Biel;Julien Chanrion;Customer Care B2B;Julien.Chanrion@salt.ch
115480;Lidl MPOS 1 East;Hardturmstrasse;8005;Zürich;Hodan Mohamed;Lidl;Hodan.Mohamed@salt.ch
115481;Lidl MPOS 2 East;Hardturmstrasse;8005;Zürich;Hodan Mohamed;Lidl;Hodan.Mohamed@salt.ch
115482;Lidl MPOS 3 East;Hardturmstrasse;8005;Zürich;Hodan Mohamed;Lidl;Hodan.Mohamed@salt.ch
115483;Lidl MPOS 4 East;Hardturmstrasse;8005;Zürich;Hodan Mohamed;Lidl;Hodan.Mohamed@salt.ch
115484;Lidl MPOS 1 Central;Alexander-Schöni-Strasse;2503;Biel;Hodan Mohamed;Lidl;Hodan.Mohamed@salt.ch
115485;Lidl MPOS 2 Central;Alexander-Schöni-Strasse;2503;Biel;Hodan Mohamed;Lidl;Hodan.Mohamed@salt.ch
115486;Lidl MPOS 3 Central;Alexander-Schöni-Strasse;2503;Biel;Hodan Mohamed;Lidl;Hodan.Mohamed@salt.ch
115487;Lidl MPOS 4 Central;Alexander-Schöni-Strasse;2503;Biel;Hodan Mohamed;Lidl;Hodan.Mohamed@salt.ch
115488;Lidl MPOS 1 West;Rue du Caudray;1020;Renens;Hodan Mohamed;Lidl;Hodan.Mohamed@salt.ch
115489;Lidl MPOS 2 West;Rue du Caudray;1020;Renens;Hodan Mohamed;Lidl;Hodan.Mohamed@salt.ch
115490;Lidl MPOS 3 West;Rue du Caudray;1020;Renens;Hodan Mohamed;Lidl;Hodan.Mohamed@salt.ch
115491;Lidl MPOS 4 West;Rue du Caudray;1020;Renens;Hodan Mohamed;Lidl;Hodan.Mohamed@salt.ch
10630;Salt MPOS 1 East;Hardturmstrasse;8005;Zürich;Hodan Mohamed;Direct Sales;Hodan.Mohamed@salt.ch
10631;Salt MPOS 2 East;Hardturmstrasse;8005;Zürich;Hodan Mohamed;Direct Sales;Hodan.Mohamed@salt.ch
10632;Salt MPOS 3 East;Hardturmstrasse;8005;Zürich;Hodan Mohamed;Direct Sales;Hodan.Mohamed@salt.ch
10633;Salt MPOS 4 East;Hardturmstrasse;8005;Zürich;Hodan Mohamed;Direct Sales;Hodan.Mohamed@salt.ch
10650;Salt MPOS 1 Central;Alexander-Schöni-Strasse;2503;Biel;Hodan Mohamed;Direct Sales;Hodan.Mohamed@salt.ch
10651;Salt MPOS 2 Central;Alexander-Schöni-Strasse;2503;Biel;Hodan Mohamed;Direct Sales;Hodan.Mohamed@salt.ch
10652;Salt MPOS 3 Central;Alexander-Schöni-Strasse;2503;Biel;Hodan Mohamed;Direct Sales;Hodan.Mohamed@salt.ch
10653;Salt MPOS 4 Central;Alexander-Schöni-Strasse;2503;Biel;Hodan Mohamed;Direct Sales;Hodan.Mohamed@salt.ch
10670;Salt MPOS 1 West;Rue du Caudray;1020;Renens;Hodan Mohamed;Direct Sales;Hodan.Mohamed@salt.ch
10671;Salt MPOS 2 West;Rue du Caudray;1020;Renens;Hodan Mohamed;Direct Sales;Hodan.Mohamed@salt.ch
10672;Salt MPOS 3 West;Rue du Caudray;1020;Renens;Hodan Mohamed;Direct Sales;Hodan.Mohamed@salt.ch
10673;Salt MPOS 4 West;Rue du Caudray;1020;Renens;Hodan Mohamed;Direct Sales;Hodan.Mohamed@salt.ch
10680;Door to Door East;Hardturmstrasse;8005;Zürich;Hodan Mohamed;Direct Sales;Hodan.Mohamed@salt.ch
10681;Door to Door Central;Alexander-Schöni-Strasse;2503;Biel;Hodan Mohamed;Direct Sales;Hodan.Mohamed@salt.ch
10682;Door to Door West;Rue du Caudray;1020;Renens;Hodan Mohamed;Direct Sales;Hodan.Mohamed@salt.ch
115496;BLS - Christoph Klöpping - 115496;Hardturmstrasse;8005;Zürich;Christian Aveni;B2B DSF KAM & SME;Christian.Aveni@salt.ch
115497;Pepe-Neuhaus Sàrl;Route du Crochet;1762;Givisiez;Ludovic Girardin;SPP Premium;Ludovic.Girardin@salt.ch
115504;Alptel-Shop Amriswil;EKZ Migros, Rütistrasse;8580;Amriswil;Lucas Amigo;SPP Premium;Lucas.Amigo@salt.ch
115505;Alptel-Shop Appenzell;Engelgasse;9050;Appenzell;Lucas Amigo;SPP Premium;Lucas.Amigo@salt.ch
115506;Alptel-Shop Kreuzlingen;EKZ Karussell, Sonnenstrasse;8280;Kreuzlingen;Lucas Amigo;SPP Premium;Lucas.Amigo@salt.ch
115509;FoxDeal AG;Bergstrasse;8032;Zürich;Besnik Jakupi;SPP Premium;Besnik.Jakupi@salt.ch
115513;SBS - Patrick Wermeille - 115513;Alexander-Schöni-Strasse;2503;Biel;Julien Chanrion;Customer Care B2B;Julien.Chanrion@salt.ch
115522;Multitel SIS;c/o Fnac Allaman, Rte de la Gare;1165;Allaman;Ludovic Girardin;SPP Premium;Ludovic.Girardin@salt.ch
115543;Welcomeonboard;Alexander-Schöni-Strasse;2503;Biel;Julien Chanrion;Direct Sales;Julien.Chanrion@salt.ch
115544;mobile klinik AG;Industriestrasse;8305;Dietlikon;Lucas Amigo;SPP Premium;Lucas.Amigo@salt.ch
115546;AM - Robert Yelegen - 115546;Hardturmstrasse;8005;Zürich;Christoph Klöpping;B2B DSF KAM & SME;Christoph.Kloepping@salt.ch
115547;AM - Marco Di Giorgi - 115547;Hardturmstrasse;8005;Zürich;Christoph Klöpping;B2B DSF KAM & SME;Christoph.Kloepping@salt.ch
115550;mobile klinik AG Biel;Bahnhofplatz;2502;Biel/Bienne;Emir Mustafa;SPP Premium;Emir.Mustafa@salt.ch
115551;mobile klinik AG Bern Zytglogge;Kornhausplatz;3011;Bern;Emir Mustafa;SPP Premium;Emir.Mustafa@salt.ch
115552;mobile klinik AG Bern Westside;Riedbachstr.;3027;Bern;Emir Mustafa;SPP Premium;Emir.Mustafa@salt.ch
115553;mobile klinik AG Zug;Baarerstrasse;6300;Zug;Besnik Jakupi;SPP Premium;Besnik.Jakupi@salt.ch
115554;mobile klinik AG Basel;Falknerstrasse;4001;Basel;Emir Mustafa;SPP Premium;Emir.Mustafa@salt.ch
115557;mobile klinik AG Yverdon-les-Bains;Rue du Lac;1400;Yverdon-les-Bains;Ludovic Girardin;SPP Premium;Ludovic.Girardin@salt.ch
115558;mobile klinik AG Fribourg;Boulevard de Pérolles;1700;Fribourg;Ludovic Girardin;SPP Premium;Ludovic.Girardin@salt.ch
115559;mobile klinik AG Lausanne;Place de la Gare;1003;Lausanne;Ludovic Girardin;SPP Premium;Ludovic.Girardin@salt.ch
115560;Eyeswiss SA;Via Cantonale;6818;Melano;Gianni Cartolano;SPP - Salt Point Partner;Gianni.Cartolano@salt.ch
115563;Multitel SA;Route de Denges;1027;Lonay;Ludovic Girardin;SPP Premium;Ludovic.Girardin@salt.ch
115565;handy.ch Aadorf;Bahnhofstrasse;8355;Aadorf;Lucas Amigo;SPP Premium;Lucas.Amigo@salt.ch
115571;natelo AG Rapperswil;Obere Bahnhofstrasse;8640;Rapperswil;Besnik Jakupi;SPP Premium;Besnik.Jakupi@salt.ch
115572;natelo AG Zug;Baarerstrasse;6300;Zug;Besnik Jakupi;SPP Premium;Besnik.Jakupi@salt.ch
115581;AM - Yves Seiler - 115581;Hardturmstrasse;8005;Zürich;Christoph Klöpping;B2B DSF KAM & SME;Christoph.Kloepping@salt.ch
115583;Business Center Bahnstrasse GmbH;Bahnstrasse;8105;Regensdorf;Fikret Aydin;B2B Partner for SME;Fikret.Aydin@salt.ch
115584;Business Center Bahnstrasse GmbH *390*;Bahnstrasse;8105;Regensdorf;Fikret Aydin;B2B Partner for Large;Fikret.Aydin@salt.ch
115585;Fixzone GmbH;Vadianstrasse;9000;St. Gallen;Besnik Jakupi;SPP Premium;Besnik.Jakupi@salt.ch
115589;Mobilezone AG Flughafen Zürich;Airport Shopping Center;8060;Zürich-Flughafen;Gianni Cartolano;MobileZone;Gianni.Cartolano@salt.ch
115590;Logic Group AG;Kobiboden;8840;Einsiedeln;Lucas Amigo;SPP Premium;Lucas.Amigo@salt.ch
115602;Sat Communications Sagl;Via Clemente Maraini;6900;Lugano;Fikret Aydin;B2B Partner for SME;Fikret.Aydin@salt.ch
115603;BizTelecom Sagl;Via Campagna;6512;Giubiasco;Fikret Aydin;B2B Partner for SME;Fikret.Aydin@salt.ch
115604;Sat Communications Sagl *390*;Via Clemente Maraini;6900;Lugano;Fikret Aydin;B2B Partner for Large;Fikret.Aydin@salt.ch
115605;BizTelecom Sagl *390*;Via Campagna;6512;Giubiasco;Fikret Aydin;B2B Partner for Large;Fikret.Aydin@salt.ch
115606;Love Beauty GmbH;Löwenzentrum Dietikon, Löwenstrasse;8953;Dietikon;Besnik Jakupi;SPP Premium;Besnik.Jakupi@salt.ch
115609;SBS - Assia El Fahfouhi - 115609;Alexander-Schöni-Strasse;2503;Biel;Philippe Ayoun;Customer Care B2B;Philippe.Ayoun@salt.ch
115613;2COM Computer and Communication GmbH;Jurastrasse;8966;Oberwil-Lieli;Besnik Jakupi;SPP Premium;Besnik.Jakupi@salt.ch
10683;Door to Door South West;Rue du Caudray;1020;Renens;Hodan Mohamed;Direct Sales;Hodan.Mohamed@salt.ch
115619;BizTelecom Sagl;Via Campagna;6512;Giubiasco;Gianni Cartolano;SPP Premium;Gianni.Cartolano@salt.ch
115620;Sat Communications Sagl;Via Clemente Maraini;6900;Lugano;Gianni Cartolano;SPP Premium;Gianni.Cartolano@salt.ch
115622;Swiftcom Sàrl;Chemin des Myosotis;1214;Vernier;Ludovic Girardin;SPP Premium;Ludovic.Girardin@salt.ch
115623;AM - Kamran Shirazi - 115623;Hardturmstrasse;8005;Zürich;Christoph Klöpping;B2B DSF KAM & SME;Christoph.Kloepping@salt.ch
10684;Door to Door Southwest;Rue du Caudray;1020;Renens;Hodan Mohamed;Direct Sales;Hodan.Mohamed@salt.ch
115625;Mobile World ZH Migros City;Löwenstrasse;8001;Zürich;Lucas Amigo;SPP Premium;Lucas.Amigo@salt.ch
115626;KORAL GmbH;Am Rainbach;6340;Baar;Besnik Jakupi;SPP Premium;Besnik.Jakupi@salt.ch
115627;Infotec Service Sàrl;Chaussée de Treycovagnes;1400;Yverdon-les-Bains;Ludovic Girardin;SPP Premium;Ludovic.Girardin@salt.ch
115628;VeryFile SA;Via Livio;6830;Chiasso;Fikret Aydin;B2B Partner for SME;Fikret.Aydin@salt.ch
115629;VeryFile SA *390*;Via Livio;6830;Chiasso;Fikret Aydin;B2B Partner for Large;Fikret.Aydin@salt.ch
115631;SBS - Vanessa Pinto - 115631;Alexander-Schöni-Strasse;2503;Biel;Philippe Ayoun;Customer Care B2B;Philippe.Ayoun@salt.ch
115633;Swiss Premium Insurance Sàrl;Rue Jean-Petitot;1204;Genève;Ludovic Girardin;SPP Premium;Ludovic.Girardin@salt.ch
